{"type": "FeatureCollection", "columns": {"count": "Long<0, 4294967295>", "system:index": "String", "water": "Byte<0, 1>"}, "features": [{"type": "Feature", "geometry": {"geodesic": false, "type": "Polygon", "coordinates": [[[79.1306188305819, 12.188152525693937], [79.13062199602936, 12.187700604582535], [79.13098950302843, 12.18770309550302], [79.13098633820978, 12.188155016713235], [79.1306188305819, 12.188152525693937]]]}, "id": "+9666+5202", "properties": {"count": 20, "water": 1}}, {"type": "Feature", "geometry": {"geodesic": false, "type": "MultiPolygon", "coordinates": [[[[79.13221250122965, 12.196750237713454], [79.13230438116842, 12.196750860416627], [79.1323031151727, 12.196931628922272], [79.13239499518335, 12.196932251598495], [79.13239372923253, 12.197113020113123], [79.13248560931505, 12.19711364277138], [79.13248307747631, 12.197475179800639], [79.1325749576846, 12.197475802449912], [79.13257305884372, 12.197746955226348], [79.1324811785456, 12.19774633256809], [79.1324818115255, 12.19765594831527], [79.13238993126332, 12.19765532562108], [79.13239056427017, 12.197564941368256], [79.13211492360938, 12.19756307314196], [79.13211618979376, 12.197382304663263], [79.13229995011152, 12.197383550168421], [79.13230058313633, 12.197293165915598], [79.13211682288146, 12.197291920428407], [79.13211808903888, 12.19711115194971], [79.13202620898332, 12.19711052916569], [79.13202684208, 12.197020144930834], [79.13211872210861, 12.19702076770587], [79.13211935516937, 12.196930383471013], [79.13221123517103, 12.196931006210118], [79.13221250122965, 12.196750237713454]]], [[[79.13221250122965, 12.196750237713454], [79.13212062129085, 12.196749614983334], [79.1321218873854, 12.196568846495653], [79.1322137672613, 12.196569469216792], [79.13221250122965, 12.196750237713454]]]]}, "id": "+9680+5104", "properties": {"count": 33, "water": 1}}, {"type": "Feature", "geometry": {"geodesic": false, "type": "MultiPolygon", "coordinates": [[[[79.13222136303806, 12.195484858191897], [79.13222262893497, 12.195304089686251], [79.13231450837968, 12.195304712308575], [79.13231324254565, 12.195485480832186], [79.13222136303806, 12.195484858191897]]], [[[79.13222136303806, 12.195484858191897], [79.13221883119033, 12.195846395212174], [79.13212695156595, 12.195845772526967], [79.13212568555225, 12.196026541023631], [79.13203380586499, 12.196025918302492], [79.1320331728222, 12.196116302546333], [79.13184941340278, 12.196115056987274], [79.13185257889516, 12.195663135821974], [79.13194445844766, 12.195663758588028], [79.13194509149943, 12.195573374344187], [79.13212885055056, 12.195574619777481], [79.13212948353944, 12.195484235533641], [79.13222136303806, 12.195484858191897]]]]}, "id": "+9681+5118", "properties": {"count": 22, "water": 1}}, {"type": "Feature", "geometry": {"geodesic": false, "type": "Polygon", "coordinates": [[[79.13015121339618, 12.189324405740011], [79.13015248002971, 12.18914363736013], [79.1302443572466, 12.18914426036873], [79.13024499052294, 12.189053876169805], [79.13033686771288, 12.189054499142472], [79.13033940065657, 12.188692962337791], [79.13015564653719, 12.188691716401442], [79.13015691309886, 12.188510948012576], [79.130524421122, 12.188513439723579], [79.13052505427258, 12.18842305550669], [79.13070880824823, 12.188424301164561], [79.13070944132694, 12.18833391694767], [79.130985072241, 12.188335785191933], [79.13098570522989, 12.188245400957076], [79.13116945913366, 12.188246646291555], [79.13117072495872, 12.188065877794891], [79.13135447876368, 12.18806712298564], [79.13135511160883, 12.187976738723833], [79.13144698848437, 12.18797736127429], [79.13144762129359, 12.187886977003501], [79.13163137499973, 12.18788822199662], [79.13163200774608, 12.18779783772583], [79.13181576140731, 12.187799082584203], [79.13181639408178, 12.187708698295447], [79.13190827089443, 12.187709320675225], [79.13190890353296, 12.18761893638647], [79.13209265710437, 12.18762018104721], [79.13209328967105, 12.187529796740488], [79.13227704320651, 12.187531041266483], [79.1322776757103, 12.187440656959762], [79.1326451827004, 12.187443145625474], [79.13264581507842, 12.187352761291804], [79.13273769181022, 12.18735338338412], [79.13273832414333, 12.187262999041467], [79.13328958444433, 12.187266730885701], [79.13328832013742, 12.187447499615926], [79.13319644334274, 12.187446877712256], [79.13319517895499, 12.187627646424515], [79.13337893266115, 12.187628890222873], [79.13337956479663, 12.187538505862252], [79.13347144163623, 12.187539127712025], [79.13347270582634, 12.187358358963833], [79.13338082905861, 12.187357737123044], [79.13338146117613, 12.18726735275344], [79.13365709141645, 12.18726921816801], [79.13365835545385, 12.187088449401852], [79.13375023214972, 12.187089071134844], [79.13374960015797, 12.187179455522413], [79.13384147688977, 12.18718007723744], [79.13383958098638, 12.187451230418116], [79.13374770416475, 12.187450608694109], [79.13373885560648, 12.188715990048228], [79.13364697835365, 12.188715368234389], [79.13364508201009, 12.188986521352184], [79.13373695935275, 12.18898714318399], [79.13373190246652, 12.189710218176756], [79.13382378006969, 12.189710840017545], [79.13382251586161, 12.189891608774719], [79.13373063819556, 12.189890986924947], [79.13372494872469, 12.190704446233418], [79.13381682666922, 12.190705068128105], [79.13380671153132, 12.192151217960923], [79.13371483309271, 12.192150595985387], [79.13371293627304, 12.192421749049283], [79.1336210577446, 12.192421127037814], [79.13361979310534, 12.192601895732107], [79.133527914523, 12.192601273675722], [79.13352601744282, 12.192872426694702], [79.13343413877065, 12.192871804602385], [79.1334328739607, 12.193052573269728], [79.13334099522567, 12.193051951123511], [79.13334352495336, 12.192690413806792], [79.13343540356264, 12.192691035926059], [79.13343730070571, 12.192419882916061], [79.13334542219525, 12.192419260805778], [79.1333466870052, 12.192238492138435], [79.13325480855761, 12.192237870010185], [79.1332579706364, 12.19178594835081], [79.1331660923505, 12.191785326213576], [79.13316672478244, 12.191694941879906], [79.13307484653248, 12.191694319724707], [79.13307547899136, 12.191603935400018], [79.13298360077734, 12.191603313208885], [79.13298486574, 12.191422544568493], [79.13307674389114, 12.191423166750642], [79.13307737633205, 12.19133278241697], [79.13298549821684, 12.191332160243803], [79.13298739560246, 12.191061007278723], [79.13280363956967, 12.191059762869509], [79.13280427208244, 12.190969378553802], [79.13271239410199, 12.190968756308772], [79.13271302665069, 12.19087837200205], [79.13262114870616, 12.19087774973007], [79.13262178127283, 12.190787365423347], [79.13252990336424, 12.190786743124418], [79.13253053595786, 12.190696358817696], [79.13243865809419, 12.1906957365008], [79.13243929070578, 12.190605352203061], [79.13225553505028, 12.190604107470454], [79.13225616772475, 12.190513723181699], [79.13198053435829, 12.190511855880667], [79.13198116712259, 12.190421471600894], [79.13152177844199, 12.190418358839619], [79.13152304426704, 12.190237590333973], [79.13161492193309, 12.19023821293833], [79.1316155548052, 12.190147828676524], [79.13133992192382, 12.190145960782605], [79.13134371961458, 12.189603655301598], [79.13115996475858, 12.189602409949154], [79.13116059775645, 12.189512025705314], [79.1309768429813, 12.189510780236088], [79.13097747603307, 12.189420396010215], [79.13079372133876, 12.189419150424207], [79.13079435444443, 12.189328766207318], [79.1307024771377, 12.18932814337838], [79.13070374340293, 12.189147374935617], [79.13042811168937, 12.189145506287112], [79.13042747847591, 12.18923589049502], [79.1303356012141, 12.18923526754032], [79.13033496795572, 12.189325651739244], [79.13015121339618, 12.189324405740011]]]}, "id": "+9696+5209", "properties": {"count": 1189, "water": 1}}, {"type": "Feature", "geometry": {"geodesic": false, "type": "MultiPolygon", "coordinates": [[[[79.13451978387323, 12.208425996628069], [79.13452041673635, 12.208335612339313], [79.13461230078941, 12.20833623485384], [79.13461166796223, 12.208426619142596], [79.13451978387323, 12.208425996628069]]], [[[79.13451978387323, 12.208425996628069], [79.13451915100113, 12.208516380916825], [79.13442726689415, 12.208515758366367], [79.13442473525303, 12.20887729549444], [79.1343328510203, 12.208876672890083], [79.13433221806736, 12.208967057169856], [79.13424033380767, 12.208966434529566], [79.13423906782093, 12.209147203071145], [79.13405529919376, 12.209145957682768], [79.13405656530627, 12.208965189159155], [79.13396468105556, 12.208964566429035], [79.13396531413427, 12.208874182176212], [79.1338734299285, 12.20887355941914], [79.13387532922752, 12.208602406651687], [79.13396721334347, 12.208603029390792], [79.13396784640422, 12.208512645137969], [79.13415161458222, 12.208513890517363], [79.13415224757111, 12.208423506246573], [79.13451978387323, 12.208425996628069]]]]}, "id": "+9707+4974", "properties": {"count": 36, "water": 1}}, {"type": "Feature", "geometry": {"geodesic": false, "type": "Polygon", "coordinates": [[[79.13496275223078, 12.21077910086106], [79.1349659163667, 12.210327179363382], [79.13514968591015, 12.21032842426667], [79.13515031865649, 12.210238039959949], [79.13542597290878, 12.21023990706335], [79.13542534025227, 12.210330291388038], [79.13551722504197, 12.210330913695952], [79.13551469448781, 12.21069245101267], [79.13542280957235, 12.210691828677808], [79.13542217689788, 12.210782213002497], [79.13496275223078, 12.21077910086106]]]}, "id": "+9716+4953", "properties": {"count": 32, "water": 1}}, {"type": "Feature", "geometry": {"geodesic": false, "type": "Polygon", "coordinates": [[[79.14444895967276, 12.207679588479705], [79.14445021858077, 12.207498818860147], [79.1445421028674, 12.207499438023957], [79.1445439910902, 12.207228283585637], [79.1444521068934, 12.207227664439795], [79.1444539951701, 12.206956510001476], [79.144729647491, 12.206958367304258], [79.14472901816725, 12.207048752132003], [79.14482090231016, 12.207049371179032], [79.14481712643949, 12.207591680145502], [79.14490901077103, 12.207592299183547], [79.14490838147422, 12.207682684020275], [79.14481649710675, 12.207682064973246], [79.14481586777401, 12.207772449800991], [79.14463209898514, 12.207771211599136], [79.14463272838077, 12.207680826789357], [79.14444895967276, 12.207679588479705]]]}, "id": "+9817+4990", "properties": {"count": 31, "water": 1}}, {"type": "Feature", "geometry": {"geodesic": false, "type": "Polygon", "coordinates": [[[79.14498830880714, 12.209400614785473], [79.1449895675355, 12.209219845138966], [79.14508145244197, 12.20922046420396], [79.14508208176572, 12.209130079376216], [79.14517396664525, 12.209130698405279], [79.14517459593307, 12.209040313577534], [79.1453583656472, 12.20904155152786], [79.14535899487214, 12.208951166691133], [79.14600218883116, 12.208955498547095], [79.14600030181211, 12.209226653183045], [79.14590841685174, 12.209226034423477], [79.14590778780646, 12.209316419287154], [79.14581590281915, 12.209315800500637], [79.14581527373794, 12.209406185364314], [79.14498830880714, 12.209400614785473]]]}, "id": "+9831+4968", "properties": {"count": 45, "water": 1}}, {"type": "Feature", "geometry": {"geodesic": false, "type": "Polygon", "coordinates": [[[79.14749999651796, 12.204988455733181], [79.14750250959989, 12.204626915802365], [79.14759439305108, 12.204627533807347], [79.14759502127889, 12.204537148817906], [79.14777878814536, 12.20453838471109], [79.14777815998043, 12.204628769709515], [79.14796192693673, 12.204630005494902], [79.14796004260364, 12.204901160508143], [79.14805192617163, 12.204901778369395], [79.1480506699855, 12.205082548393195], [79.14795878635464, 12.205081930522958], [79.14795815821665, 12.205172315521384], [79.14777439090103, 12.205171079682097], [79.1477750190929, 12.205080694692656], [79.14759125184915, 12.20507945873659], [79.1475918801039, 12.204989073756131], [79.14749999651796, 12.204988455733181]]]}, "id": "+9850+5017", "properties": {"count": 30, "water": 1}}, {"type": "Feature", "geometry": {"geodesic": false, "type": "MultiPolygon", "coordinates": [[[[79.15481376857349, 12.210370535382761], [79.15481439465432, 12.210280150060942], [79.15490628044115, 12.210280765900986], [79.15490690648605, 12.210190380579167], [79.15499879224592, 12.210190996383277], [79.15500004426387, 12.210010225721675], [79.15509192996984, 12.21001084148087], [79.15509255593389, 12.209920456150067], [79.15518444161292, 12.20992107187333], [79.15518506754104, 12.209830686533545], [79.15527695319312, 12.209831302229858], [79.15527757909429, 12.20974091688109], [79.15536946471941, 12.20974153254147], [79.15537009057567, 12.209651147183719], [79.15546197617385, 12.209651762808166], [79.15546260200315, 12.209561377450417], [79.15555448757438, 12.20956199303893], [79.15555573914317, 12.209381222305462], [79.15564762466049, 12.209381837858045], [79.15564825040896, 12.20929145249131], [79.15574013589934, 12.209292067998977], [79.15574076161185, 12.20920168262326], [79.15583264707529, 12.209202298103977], [79.1558332727429, 12.209111912719276], [79.15592515817937, 12.209112528164061], [79.15592578382004, 12.20902214277936], [79.15601766922957, 12.209022758188212], [79.1560182948343, 12.208932372794528], [79.15611018021687, 12.208932988167447], [79.1561114313455, 12.208752217371098], [79.15620331667417, 12.208752832708084], [79.15620394219805, 12.208662447305416], [79.15629582749978, 12.208663062597488], [79.15629645298773, 12.208572677185838], [79.15648022354627, 12.208573907680147], [79.15647897268715, 12.208754678512431], [79.1565708580338, 12.208755293723653], [79.1565696072196, 12.208936064564918], [79.15647772181008, 12.208935449344713], [79.15647521999303, 12.209296991000295], [79.15665899106361, 12.20929822144969], [79.1566577402494, 12.209478992290956], [79.15647396905305, 12.209477761823596], [79.15647459452305, 12.209387376411946], [79.15638270896979, 12.209386761146824], [79.15638333446671, 12.209296375735175], [79.15619956342307, 12.209295145106118], [79.15619831229446, 12.209475915902468], [79.15610642671426, 12.209475300529549], [79.15610454990006, 12.209746456710599], [79.15628832124015, 12.209747687447454], [79.15628581900089, 12.210109229040155], [79.15637770480568, 12.210109844377142], [79.15637707926383, 12.210200229779808], [79.15600953594587, 12.210197768216267], [79.15600891027826, 12.210288153600967], [79.15591702442855, 12.210287538129233], [79.1559176501321, 12.210197152744533], [79.15582576431832, 12.21019653724585], [79.15582764149184, 12.20992538112768], [79.15591952721579, 12.209925996608398], [79.15592015289238, 12.20983561123268], [79.15582826721335, 12.209834995751963], [79.1558288929169, 12.209744610376246], [79.15564512162173, 12.209743379333965], [79.15564387007092, 12.209924150067431], [79.15573575578587, 12.209924765611031], [79.15573262698068, 12.210376692453684], [79.15564074111302, 12.210376076883136], [79.15563948949932, 12.210556847607622], [79.15536383175258, 12.210555000689363], [79.15536445765375, 12.210464615340596], [79.15490502833337, 12.210461536553606], [79.15490565438726, 12.210371151231787], [79.15481376857349, 12.210370535382761]]], [[[79.15481376857349, 12.210370535382761], [79.15481314248368, 12.210460920704579], [79.15472125664296, 12.21046030481962], [79.15472188275972, 12.210369919506785], [79.15481376857349, 12.210370535382761]]]]}, "id": "+9945+4973", "properties": {"count": 169, "water": 1}}, {"type": "Feature", "geometry": {"geodesic": false, "type": "Polygon", "coordinates": [[[79.15934303095518, 12.206514096533276], [79.15925114623737, 12.206513482355117], [79.15925301934152, 12.206242325635078], [79.1594367885975, 12.206243553928514], [79.1594374128907, 12.206153168337202], [79.16035625916165, 12.206159307899961], [79.16035688314042, 12.206068922272715], [79.16044876775943, 12.206069536055615], [79.16044751985578, 12.20625030731909], [79.16017186581908, 12.206248465853607], [79.16017061770881, 12.206429237099114], [79.1599868482462, 12.206428009281783], [79.1599862241237, 12.206518394891063], [79.15989433936994, 12.206517780928499], [79.15989309104407, 12.206698552138073], [79.15980120623642, 12.206697938139577], [79.1597999578297, 12.206878709340168], [79.1596161880976, 12.206877481226394], [79.15961806088734, 12.20660632446144], [79.1595261761246, 12.206605710373111], [79.15952555183141, 12.20669609595544], [79.15934178225203, 12.20669486767997], [79.15934303095518, 12.206514096533276]], [[79.15934303095518, 12.206514096533276], [79.1593436552933, 12.206423710950947], [79.15952742468403, 12.206424939199469], [79.15952680040881, 12.20651532479078], [79.15934303095518, 12.206514096533276]]]}, "id": "+9988+5001", "properties": {"count": 53, "water": 1}}, {"type": "Feature", "geometry": {"geodesic": false, "type": "Polygon", "coordinates": [[[79.16034627480049, 12.207605477917921], [79.16034814696141, 12.207334321054152], [79.16053191708876, 12.207335548718769], [79.16053378901611, 12.207064391819065], [79.16044190404676, 12.207063778018199], [79.16044252805249, 12.20697339238197], [79.1607181828797, 12.20697523369474], [79.16071943067557, 12.206794462404316], [79.16117885518098, 12.206797530582204], [79.16117760769953, 12.206978301917543], [79.16136137766517, 12.206979528998254], [79.16136200134751, 12.20688914331711], [79.16145388630788, 12.20688975681255], [79.16145139166838, 12.207251299537129], [79.16135950658224, 12.207250686023722], [79.16135888288194, 12.207341071704866], [79.16126699777784, 12.207340458155526], [79.16126575029638, 12.20752122949985], [79.1610819799714, 12.207520002302356], [79.16108135615431, 12.207610387965534], [79.16062193027449, 12.207607319419338], [79.1606225542353, 12.20751693378311], [79.16043878398219, 12.207515706154426], [79.1604381599495, 12.207606091781672], [79.16034627480049, 12.207605477917921]]]}, "id": "+9996+4993", "properties": {"count": 77, "water": 1}}]}