{"type": "FeatureCollection", "columns": {"count": "Long<0, 4294967295>", "system:index": "String", "water": "Byte<0, 1>"}, "features": [{"type": "Feature", "geometry": {"geodesic": false, "type": "Polygon", "coordinates": [[[78.47099876897596, 9.84988225954277], [78.47127187302794, 9.849879449145437], [78.4712709283506, 9.849789169591261], [78.47136196299267, 9.849788232747235], [78.47136101830635, 9.84969795320204], [78.47145205292148, 9.849697016340048], [78.4714511082172, 9.849606736803837], [78.47172421190984, 9.849603926119043], [78.47172515668599, 9.849694205628305], [78.4716341221068, 9.84969514255318], [78.4716369564083, 9.849965981116895], [78.47154592174827, 9.84996691804177], [78.47154686650646, 9.850057197568997], [78.47136479710554, 9.850059071382816], [78.47136668655902, 9.85023963046422], [78.47127565179117, 9.850240567353161], [78.47127659650445, 9.850330846898355], [78.47118556170966, 9.850331783769331], [78.47118650640496, 9.850422063332491], [78.47100443673455, 9.850423937011561], [78.47099876897596, 9.84988225954277]]]}, "id": "+8089+10923", "properties": {"count": 36, "water": 1}}, {"type": "Feature", "geometry": {"geodesic": false, "type": "Polygon", "coordinates": [[[78.47291900203197, 9.850675096640488], [78.4730100367549, 9.850674159275439], [78.4730109819802, 9.850764438649954], [78.473193051453, 9.85076256382104], [78.47319399673219, 9.85085284318657], [78.47337606621397, 9.850850968240875], [78.47337701156505, 9.85094124758844], [78.47346804631492, 9.850940310070676], [78.47346993707994, 9.851120868747838], [78.47356097187473, 9.85111993118516], [78.4735647536114, 9.851481048485585], [78.473655788496, 9.851480110869007], [78.47365862497143, 9.851750948812885], [78.47356759001495, 9.851751886456412], [78.47356853550077, 9.851842165777027], [78.47347750051735, 9.851843103411571], [78.4734784459852, 9.85193338274117], [78.47338741095685, 9.851934320357747], [78.47338835641571, 9.852024599696328], [78.47320628629615, 9.852026474866602], [78.47320723171009, 9.852116754223148], [78.47311619660988, 9.852117691776845], [78.47311808741084, 9.852298250507905], [78.47302705225673, 9.852299188052617], [78.47302799764374, 9.852389467427132], [78.47293696245369, 9.852390404962861], [78.47293507173357, 9.85220984620485], [78.47302610686972, 9.852208908687087], [78.47302421613165, 9.85202834993806], [78.4731152512139, 9.852027412411314], [78.47311430583588, 9.851937133045784], [78.47320534089117, 9.851936195510055], [78.47320439549519, 9.851845916153506], [78.47338646551594, 9.851844041019167], [78.47338552007504, 9.8517537616716], [78.47347655504949, 9.851752824081974], [78.47347371872678, 9.851481986084195], [78.4733826838242, 9.851482923655858], [78.47337890227617, 9.851121806283567], [78.47328786747241, 9.851122743792347], [78.47328692213031, 9.8510324644358], [78.47319588733554, 9.85103340191763], [78.47319494202937, 9.850943122552101], [78.47301287246675, 9.850944997416946], [78.47301192721449, 9.85085471803345], [78.47292089244665, 9.850855655425448], [78.47291900203197, 9.850675096640488]]]}, "id": "+8103+10911", "properties": {"count": 41, "water": 1}}, {"type": "Feature", "geometry": {"geodesic": false, "type": "Polygon", "coordinates": [[[78.47587018064102, 9.845588519959577], [78.47605224671818, 9.845586644564724], [78.47605130116949, 9.845496365450723], [78.47641543311718, 9.845492614400506], [78.47641637876471, 9.84558289348756], [78.47650741175387, 9.845581955655385], [78.47650835742834, 9.845672234724471], [78.47659939043548, 9.845671296856366], [78.47660411909527, 9.846122692165865], [78.47596688702123, 9.84612925701803], [78.47596405031224, 9.845858419649074], [78.4758730171973, 9.845859357355483], [78.47587018064102, 9.845588519959577]]]}, "id": "+8141+10968", "properties": {"count": 48, "water": 1}}, {"type": "Feature", "geometry": {"geodesic": false, "type": "Polygon", "coordinates": [[[78.48738676506721, 9.849893801852126], [78.48747779817316, 9.849892860660253], [78.48747115483519, 9.84926091470453], [78.4876532206698, 9.8492590323657], [78.4876522716087, 9.849168754392558], [78.48783433735348, 9.849166871963897], [78.48783338825642, 9.849076594008721], [78.48819751953937, 9.849072828908854], [78.48819846873523, 9.849163106828097], [78.4882895015627, 9.849162165483511], [78.48829045079451, 9.849252443402754], [78.48856354928591, 9.849249619198316], [78.48856449859856, 9.849339897081625], [78.48865553143501, 9.849338955620258], [78.48865648078359, 9.84942923350357], [78.48874751363802, 9.84942829200627], [78.4887532100798, 9.849969959225282], [78.48866217708165, 9.849970900767499], [78.48866597479036, 9.85033201227379], [78.48857494168442, 9.850332953824989], [78.48857589110486, 9.8504232317083], [78.48784762572723, 9.850430763354321], [78.48784667649544, 9.850340485408129], [78.48757357690808, 9.850343309343073], [78.48757262775713, 9.850253031360948], [78.48748159457033, 9.850253972615702], [78.48748064545532, 9.850163694624595], [78.4873896122775, 9.8501646358524], [78.48738676506721, 9.849893801852126]]]}, "id": "+8270+10927", "properties": {"count": 182, "water": 1}}, {"type": "Feature", "geometry": {"geodesic": false, "type": "Polygon", "coordinates": [[[78.4887038518411, 9.845275509347045], [78.48879488355466, 9.84527456823602], [78.48879393457439, 9.84518429035271], [78.48906702957136, 9.84518146688489], [78.4890679786235, 9.845271744750233], [78.48970520013334, 9.84526515576034], [78.4897089971324, 9.84562626695222], [78.48961796540985, 9.845627208350706], [78.48962366103417, 9.846168875183443], [78.48889540579852, 9.846176405868269], [78.48889445670147, 9.84608612799394], [78.4888034247813, 9.846087069212762], [78.48879773054936, 9.845545401903918], [78.48870669876393, 9.84554634304189], [78.4887038518411, 9.845275509347045]]]}, "id": "+8280+10970", "properties": {"count": 99, "water": 1}}, {"type": "Feature", "geometry": {"geodesic": false, "type": "Polygon", "coordinates": [[[78.50962914958905, 9.912592224376905], [78.50990229407421, 9.912589364832744], [78.50990325545122, 9.912679640317553], [78.51017639992739, 9.912676780521862], [78.51017736138526, 9.912767055979721], [78.51026840955595, 9.912766102660592], [78.51026937104976, 9.912856378100484], [78.51045146740013, 9.912854471372395], [78.51045242895681, 9.912944746794322], [78.51054347714548, 9.912943793385361], [78.5105444387381, 9.913034068798305], [78.5107265351334, 9.913032161881569], [78.51072749677991, 9.913122437285528], [78.5109095931842, 9.913120530252012], [78.51091055489358, 9.913210805629022], [78.51109265131583, 9.913208898478725], [78.51109361308811, 9.913299173846752], [78.51118466130372, 9.913298220222197], [78.51118562311193, 9.913388495572258], [78.51127667134551, 9.913387541920752], [78.51127955687794, 9.91365836795297], [78.51137060518339, 9.913657414247565], [78.5113754147185, 9.91410879090804], [78.51146646313174, 9.91410783713077], [78.51146934904146, 9.914378663100106], [78.51128725204428, 9.914380570672611], [78.51128340438925, 9.914019469317282], [78.51119235597601, 9.914020423031669], [78.51119043225178, 9.913839872331547], [78.51109938388346, 9.913840826010002], [78.51109746024908, 9.913660275291914], [78.51100641191668, 9.91366122891647], [78.51100545013541, 9.913570953548442], [78.51091440182996, 9.913571907146048], [78.51091344007567, 9.913481631769038], [78.5108223917792, 9.913482585330712], [78.51082143006981, 9.913392309944719], [78.5107303817913, 9.913393263479444], [78.51072845844439, 9.913212712680506], [78.51054636195028, 9.913214619633175], [78.5105454003397, 9.91312434422023], [78.51045435209713, 9.913125297647158], [78.51045339052249, 9.913035022225232], [78.51027129407328, 9.913036928989253], [78.51027033256152, 9.91294665354936], [78.5100882361213, 9.912948560205585], [78.51008727466343, 9.912858284738743], [78.5099962264568, 9.91285923802194], [78.50999526503487, 9.912768962546114], [78.50981316863957, 9.912770869022674], [78.50981220727154, 9.912680593528883], [78.50963011089421, 9.912682499888664], [78.50962914958905, 9.912592224376905]]]}, "id": "+8501+10221", "properties": {"count": 62, "water": 1}}, {"type": "Feature", "geometry": {"geodesic": false, "type": "MultiPolygon", "coordinates": [[[[78.51626793717902, 9.911800380384701], [78.51672317358586, 9.911795605731168], [78.5167241367595, 9.911885880551223], [78.5168151840319, 9.91188492554326], [78.51681422084027, 9.911794650723206], [78.51690526808572, 9.911793695697277], [78.51690719453183, 9.911974245301455], [78.51654300529856, 9.911978065342286], [78.51654204216982, 9.911887790504263], [78.5162689002269, 9.911890655249671], [78.51626793717902, 9.911800380384701]]], [[[78.51626793717902, 9.911800380384701], [78.51590374789185, 9.911804199661962], [78.51590278496074, 9.911713924761058], [78.51544754826645, 9.911718698264748], [78.5154465854611, 9.911628423318929], [78.51508239603919, 9.911632241643977], [78.51508143334165, 9.91154196665324], [78.51480829125501, 9.911544830114059], [78.5148073286473, 9.911454555105356], [78.51462523392286, 9.911456463935503], [78.51462427136906, 9.911366188908836], [78.51498846067419, 9.911362371185659], [78.51498942332681, 9.911452646176395], [78.51544465988637, 9.911447873418307], [78.51544562266476, 9.91153814837311], [78.51580981184412, 9.911534329688735], [78.5158107747393, 9.911624604598622], [78.51608391659238, 9.911621740302373], [78.5160848795684, 9.91171201518531], [78.5162669741491, 9.91171010551973], [78.51626793717902, 9.911800380384701]]]]}, "id": "+8557+10234", "properties": {"count": 40, "water": 1}}, {"type": "Feature", "geometry": {"geodesic": false, "type": "Polygon", "coordinates": [[[78.51538799125669, 9.871903587358151], [78.51547902765945, 9.871902636518373], [78.51547806879772, 9.871812361356959], [78.51566014152242, 9.871810459623502], [78.51565918261576, 9.871720184480052], [78.51584125525062, 9.871718282665748], [78.51584221421118, 9.87180855779123], [78.51593325054208, 9.87180760683467], [78.51593516853504, 9.871988157058686], [78.51602620490188, 9.871987206066194], [78.5160271639343, 9.872077481164727], [78.51584509113773, 9.87207938314971], [78.51584605012523, 9.872169658275194], [78.51566397723884, 9.87217156017933], [78.5156649361904, 9.872261835313795], [78.5155738997068, 9.872262786243406], [78.51557198186654, 9.872082235947525], [78.51548094541886, 9.872083186832219], [78.51547998653916, 9.871992911670805], [78.51538895010944, 9.87199386252855], [78.51538799125669, 9.871903587358151]]]}, "id": "+8571+10673", "properties": {"count": 23, "water": 1}}, {"type": "Feature", "geometry": {"geodesic": false, "type": "Polygon", "coordinates": [[[78.5176486868115, 9.879012479910218], [78.51783076306657, 9.879010575634528], [78.51782980285736, 9.878920300742609], [78.51819395516088, 9.878916491912753], [78.51819971716174, 9.879458141030714], [78.51792660250065, 9.87946099785298], [78.5179275627907, 9.879551272726934], [78.51783652452842, 9.8795522249591], [78.5178346040022, 9.879371675184244], [78.51774356578484, 9.879372627371495], [78.51774068513926, 9.879101802686751], [78.51764964698476, 9.879102754820103], [78.5176486868115, 9.879012479910218]]]}, "id": "+8596+10593", "properties": {"count": 30, "water": 1}}, {"type": "Feature", "geometry": {"geodesic": false, "type": "Polygon", "coordinates": [[[78.52156699206866, 9.913460169175353], [78.52165803930511, 9.913459212694155], [78.52165610996643, 9.913278664033209], [78.52192925146917, 9.91327579449978], [78.52193021621487, 9.913366068807797], [78.52211231055303, 9.913364155656753], [78.52211520497877, 9.913634978517917], [78.52202415773334, 9.913635935133863], [78.5220260873505, 9.913816483722945], [78.52166189809927, 9.913820310025033], [78.5216609333895, 9.913730035690067], [78.5215698860722, 9.913730992198216], [78.52156699206866, 9.913460169175353]]]}, "id": "+8633+10212", "properties": {"count": 29, "water": 1}}, {"type": "Feature", "geometry": {"geodesic": false, "type": "Polygon", "coordinates": [[[78.5250130089725, 9.920646682285495], [78.52510405785286, 9.92064572418733], [78.52510502419756, 9.920735998145], [78.52528712197626, 9.920734081858837], [78.52528808837486, 9.920824355798542], [78.52547018617153, 9.920822439395598], [78.52547115263302, 9.920912713317337], [78.52528905478245, 9.920914629738249], [78.525290021208, 9.921004903677956], [78.5251079232676, 9.921006820018018], [78.52510695690493, 9.920916546060345], [78.52501590795269, 9.920917504185462], [78.5250130089725, 9.920646682285495]]]}, "id": "+8667+10130", "properties": {"count": 11, "water": 1}}, {"type": "Feature", "geometry": {"geodesic": false, "type": "Polygon", "coordinates": [[[78.53168336039711, 9.871732996531113], [78.53177439514698, 9.871732041307554], [78.53177343185655, 9.871641767736158], [78.53186446657048, 9.871640812494634], [78.53186350327107, 9.87155053893222], [78.53195453794908, 9.871549583681714], [78.5319535746317, 9.871459310128284], [78.53186253997166, 9.87146026537879], [78.53186157669022, 9.871369991816376], [78.5319526113233, 9.871369036574853], [78.5319468316526, 9.870827395263252], [78.53203786613297, 9.870826440048678], [78.53204749934268, 9.871729175475187], [78.53195646461977, 9.871730130779593], [78.53195839132638, 9.87191067787747], [78.53168528695102, 9.87191354368289], [78.53168336039711, 9.871732996531113]]]}, "id": "+8749+10681", "properties": {"count": 20, "water": 1}}, {"type": "Feature", "geometry": {"geodesic": false, "type": "MultiPolygon", "coordinates": [[[[78.53584973469235, 9.869703020968077], [78.53585069889905, 9.869793294144214], [78.53566863125883, 9.869795206405927], [78.53566766710601, 9.869704933211821], [78.53584973469235, 9.869703020968077]]], [[[78.53593980425634, 9.869611791643116], [78.53594076848101, 9.869702064810271], [78.53584973469235, 9.869703020968077], [78.53584877049461, 9.869612747791939], [78.53593980425634, 9.869611791643116]]], [[[78.53793289743723, 9.868688020403532], [78.53793386210208, 9.868778293391024], [78.53756972872606, 9.868782119666161], [78.53757262250501, 9.869052938709485], [78.53739055561039, 9.869054851761716], [78.53738862651424, 9.868874305696899], [78.53729759310286, 9.868875262160133], [78.53729662859072, 9.86878498911874], [78.5372055951973, 9.868785945555024], [78.5372046307211, 9.86869567250465], [78.53711359734567, 9.868696628905], [78.53711263290539, 9.868606355845642], [78.53693056616348, 9.868608268565495], [78.53693153054985, 9.86869854164282], [78.53684049714745, 9.868699497971305], [78.53684146152484, 9.86878977105761], [78.53665939463022, 9.868791683660682], [78.53666035896269, 9.868881956755972], [78.53656932547945, 9.868882913030559], [78.53657028979396, 9.868973186143815], [78.53647925627477, 9.868974142400434], [78.5364802205803, 9.869064415522674], [78.5363891870252, 9.869065371761328], [78.5363920799238, 9.869336191146012], [78.53630104628785, 9.869337147393649], [78.5363020105754, 9.869427420533855], [78.53621097691249, 9.869428376754541], [78.53621194118209, 9.86951864990373], [78.53612090748324, 9.869519606115434], [78.53612187174386, 9.869609879264623], [78.53593980425634, 9.869611791643116], [78.53593884004064, 9.869521518466978], [78.53602987376644, 9.869520562309173], [78.53602890954176, 9.869430289142016], [78.53611994323161, 9.869429332966245], [78.53611801475532, 9.869248786658884], [78.53620904838229, 9.869247830465147], [78.536207119897, 9.869067284175753], [78.53629815347009, 9.869066327982015], [78.53629718920948, 9.86897605484181], [78.53638822274662, 9.868975098639089], [78.53638629421641, 9.868794552376643], [78.53656836116494, 9.868792639917302], [78.53656739686839, 9.868702366804046], [78.53665843029775, 9.86870141055641], [78.53665746598324, 9.868611137443153], [78.53683953277904, 9.868609224884997], [78.53683856841963, 9.868518951789708], [78.53702063513458, 9.868517039150703], [78.53701967073025, 9.86842676607338], [78.53738380394458, 9.868422940525877], [78.5373828394504, 9.868332667493469], [78.53756490594976, 9.86833075458497], [78.53756394142864, 9.86824048157053], [78.53792807421179, 9.868236655502004], [78.53792710960083, 9.868146382514512], [78.53838227524739, 9.8681415994258], [78.53838131051964, 9.868051326492205], [78.53892750884994, 9.868045586023978], [78.53892847373038, 9.868135858912655], [78.53911053981652, 9.86813394521364], [78.5391124696942, 9.868314490946078], [78.5392035027732, 9.868313534033687], [78.5392054327497, 9.86849407974816], [78.53929646586462, 9.868493122799839], [78.53930032601524, 9.868854214183868], [78.53939135922, 9.868853257181646], [78.53939521962214, 9.86921434852076], [78.53948625291673, 9.869213391446673], [78.53949107874729, 9.869664755566665], [78.53958211215867, 9.869663798429697], [78.53958500784206, 9.869934616862167], [78.5394939743588, 9.869935574026085], [78.53949300914599, 9.869845301209274], [78.53940197567172, 9.86984625833726], [78.53940004532693, 9.869665712676685], [78.53930901189759, 9.869666669768739], [78.53930611651963, 9.869395851246438], [78.53921508315315, 9.869396808284591], [78.53921315299701, 9.869216262579101], [78.53912211967545, 9.86921721957234], [78.5391250148468, 9.869488038157524], [78.5388519145947, 9.869490909074358], [78.53885094959747, 9.869400636185679], [78.53894198299987, 9.86939967924634], [78.53894101799365, 9.869309406366646], [78.53884998461821, 9.869310363297002], [78.53884901963895, 9.869220090408325], [78.53866695290601, 9.869222004179207], [78.53866598798965, 9.869131731272562], [78.53857495464115, 9.869132688113087], [78.53857398975171, 9.86904241519746], [78.5384829564122, 9.869043372002054], [78.53847909707906, 9.868682280303613], [78.53857013031975, 9.868681323534954], [78.53856820065768, 9.868500777694717], [78.53847716747087, 9.868501734454393], [78.53847620267128, 9.8684114615208], [78.53838516949347, 9.868412418244544], [78.5383861342661, 9.868502691178138], [78.53829510105236, 9.868503647883914], [78.53829413630666, 9.868413374932356], [78.53820310311986, 9.868414331602201], [78.53820406782962, 9.868504604562743], [78.5381130346069, 9.868505561214622], [78.53811399930767, 9.868595834175164], [78.53802296604003, 9.868596790809077], [78.53802393073182, 9.868687063787586], [78.53793289743723, 9.868688020403532]], [[78.53793289743723, 9.868688020403532], [78.5377508308121, 9.868689933581525], [78.53774986620114, 9.86859966058505], [78.53793193277238, 9.868597747425023], [78.53793289743723, 9.868688020403532]], [[78.53866019868899, 9.868590093832701], [78.53884226508056, 9.868588180187583], [78.53884419491332, 9.868768725973922], [78.53875316167262, 9.86876968282343], [78.53875219677421, 9.86867940992577], [78.53866116355148, 9.868680366739344], [78.53866019868899, 9.868590093832701]]]]}, "id": "+8825+10711", "properties": {"count": 237, "water": 1}}, {"type": "Feature", "geometry": {"geodesic": false, "type": "Polygon", "coordinates": [[[78.53979073268715, 9.897649302637449], [78.54006385589122, 9.897646422854244], [78.54006191964449, 9.897465877624862], [78.54015296063766, 9.8974649176582], [78.54015489694726, 9.897645462878598], [78.54024593798533, 9.897644502876004], [78.5402478743758, 9.897825048069453], [78.54033891545879, 9.897824088030927], [78.54034472500746, 9.898365723548395], [78.54025368377175, 9.89836668364082], [78.54025271551365, 9.898276411048586], [78.54007063307817, 9.898278331152591], [78.54006966488294, 9.898188058542392], [78.53997862367417, 9.898189018544986], [78.53997571921425, 9.897918200678454], [78.53988467806838, 9.897919160636134], [78.53988274185758, 9.897738615370818], [78.53979170075662, 9.897739575283582], [78.53979073268715, 9.897649302637449]]]}, "id": "+8835+10385", "properties": {"count": 32, "water": 1}}, {"type": "Feature", "geometry": {"geodesic": false, "type": "MultiPolygon", "coordinates": [[[[78.54132880695232, 9.85420706551852], [78.54132977110513, 9.8542973382455], [78.54123874207752, 9.854298294376354], [78.54123777795166, 9.85420802164039], [78.54132880695232, 9.85420706551852]]], [[[78.54132880695232, 9.85420706551852], [78.54132591454778, 9.85393624734656], [78.54114385669021, 9.85393815951844], [78.54114192857324, 9.853757614028547], [78.54132398633199, 9.853755701892599], [78.5413210940712, 9.853484883711657], [78.54123006526817, 9.853485839761664], [78.54122813718712, 9.853305294289736], [78.54113710842901, 9.853306250294828], [78.54113421645567, 9.853035432051005], [78.54104318776045, 9.85303638801118], [78.54104222381424, 9.85294611525725], [78.54095119513698, 9.852947071181495], [78.54094830341518, 9.852676252874788], [78.54103933202056, 9.852675296977495], [78.5410402959488, 9.852765569731424], [78.54131338178294, 9.852762701859879], [78.54131434578305, 9.852852974595843], [78.54149640301179, 9.852851062540743], [78.54149736707478, 9.852941335258741], [78.54158839569814, 9.852940379181785], [78.541596108723, 9.8536625608], [78.54150507990201, 9.853663516948822], [78.54150604404583, 9.853753789657837], [78.54159707289378, 9.853752833509015], [78.54160092966671, 9.854113924300156], [78.5414188717732, 9.8541158366517], [78.541419835935, 9.854206109369697], [78.54132880695232, 9.85420706551852]]]]}, "id": "+8850+10881", "properties": {"count": 66, "water": 1}}, {"type": "Feature", "geometry": {"geodesic": false, "type": "Polygon", "coordinates": [[[78.5493885042309, 9.867213215211466], [78.54957056773888, 9.86721129604171], [78.54956960005569, 9.867121024195079], [78.54993372685605, 9.867117185595054], [78.54993856586489, 9.867568544630583], [78.5498475340525, 9.867569504363683], [78.54984850186146, 9.867659776183366], [78.54939334254804, 9.867664574516489], [78.5493885042309, 9.867213215211466]]]}, "id": "+8946+10720", "properties": {"count": 33, "water": 1}}, {"type": "Feature", "geometry": {"geodesic": false, "type": "Polygon", "coordinates": [[[78.5507762658879, 9.8777615682953], [78.55141350731341, 9.877754841027732], [78.55141835366149, 9.878206199057148], [78.55132731907332, 9.878207160209586], [78.55132828834653, 9.878297431822656], [78.55087311515413, 9.878302237288404], [78.55087214600668, 9.878211965630419], [78.55078111136461, 9.878212926639126], [78.5507762658879, 9.8777615682953]]]}, "id": "+8961+10602", "properties": {"count": 40, "water": 1}}, {"type": "Feature", "geometry": {"geodesic": false, "type": "Polygon", "coordinates": [[[78.55290405401658, 9.846953023075047], [78.55299507987313, 9.846952064509757], [78.55299314670762, 9.846771521274635], [78.55308417250129, 9.846770562691379], [78.55308320590505, 9.846680291087292], [78.5531742316628, 9.846679332495052], [78.55317229845237, 9.846498789295863], [78.5532633241562, 9.84649783069464], [78.55326139092782, 9.846317287504434], [78.55344344220971, 9.846315370266055], [78.55344537552794, 9.846495913420329], [78.55335434984207, 9.846496872066467], [78.55335628315132, 9.846677415229724], [78.5534473088821, 9.84667645656562], [78.55344827557714, 9.846766728133774], [78.55353930132588, 9.846765769433736], [78.55354123478784, 9.84694631256106], [78.55335918319153, 9.846948229979102], [78.55336014988657, 9.84703850155624], [78.55299604646936, 9.847042336122827], [78.55299701307457, 9.847132607735897], [78.5529059871731, 9.847133566328136], [78.55290405401658, 9.846953023075047]]]}, "id": "+8987+10950", "properties": {"count": 30, "water": 1}}, {"type": "Feature", "geometry": {"geodesic": false, "type": "Polygon", "coordinates": [[[78.5536235600656, 9.846132909819504], [78.553896636701, 9.846130033683458], [78.55389566995206, 9.846039762151237], [78.55398669545826, 9.846038803406284], [78.55398572869136, 9.845948531874063], [78.55407675416163, 9.845947573111143], [78.55407772094651, 9.846037844625398], [78.55416874643474, 9.846036885826546], [78.55416681281109, 9.845856342816003], [78.55425783823645, 9.845855384008166], [78.55426073876176, 9.846126198497032], [78.55435176425, 9.846125239644282], [78.55435369802636, 9.846305782609909], [78.55426267248421, 9.84630674148961], [78.55426460625159, 9.846487284473204], [78.55417358065556, 9.846488243343922], [78.55417454752128, 9.846578514849194], [78.55408352188931, 9.846579473701944], [78.55408255504156, 9.846489202187689], [78.55399152942756, 9.846490161013492], [78.55399346307816, 9.846670704050984], [78.55390243741026, 9.84667166285882], [78.55390340422208, 9.84676193439104], [78.55372135279644, 9.846763851961796], [78.55372038602953, 9.84667358042059], [78.55381141172438, 9.846672621648688], [78.55381044493951, 9.846582350116467], [78.5537194192716, 9.846583308870404], [78.5537174857827, 9.846402765779011], [78.55362646015074, 9.846403724488033], [78.5536235600656, 9.846132909819504]]]}, "id": "+8996+10955", "properties": {"count": 44, "water": 1}}, {"type": "Feature", "geometry": {"geodesic": false, "type": "Polygon", "coordinates": [[[78.55417544817219, 9.872128210861383], [78.55481267641044, 9.872121480961752], [78.55481849422361, 9.872663108771675], [78.55472746150393, 9.872664070310389], [78.55472843114545, 9.872754341618032], [78.55418223445008, 9.872760110401156], [78.55417544817219, 9.872128210861383]]]}, "id": "+8999+10664", "properties": {"count": 48, "water": 1}}, {"type": "Feature", "geometry": {"geodesic": false, "type": "Polygon", "coordinates": [[[78.55488237930743, 9.870134550843552], [78.55497341132642, 9.87013358951145], [78.55497244187355, 9.87004331821279], [78.55524553779577, 9.870040434072756], [78.55524650731152, 9.870130705344467], [78.55533753929458, 9.870129743904567], [78.55533656974289, 9.87003947264184], [78.55551863361919, 9.870037549717127], [78.55552057282137, 9.870218092197664], [78.55533850884626, 9.870220015167295], [78.55534044798557, 9.870400557692747], [78.55524941593963, 9.870401519150613], [78.55525038549132, 9.870491790422323], [78.55488625709197, 9.870495636065138], [78.55488528763908, 9.870405364766478], [78.55497631972096, 9.870404403398444], [78.55497535025012, 9.870314132099786], [78.55488431818621, 9.870315093458837], [78.55488237930743, 9.870134550843552]]]}, "id": "+9007+10687", "properties": {"count": 25, "water": 1}}, {"type": "Feature", "geometry": {"geodesic": false, "type": "MultiPolygon", "coordinates": [[[[78.55761224107587, 9.861528987620316], [78.55770327045381, 9.861528026378046], [78.5577042397989, 9.861618297452125], [78.557613210394, 9.861619258703378], [78.55761224107587, 9.861528987620316]]], [[[78.55761224107587, 9.861528987620316], [78.55743018228405, 9.861530910041973], [78.55742921302881, 9.861440638940943], [78.55724715425495, 9.86144256124582], [78.55724618505361, 9.861352290126822], [78.55715515567567, 9.861353251225362], [78.55715612485007, 9.861443522362325], [78.55697406601332, 9.861445444514487], [78.55697212778132, 9.861264902222596], [78.55706315715028, 9.861263941168973], [78.55706218802979, 9.86117367003201], [78.55688012931881, 9.861175592085358], [78.55687916025221, 9.86108532093043], [78.5567881309102, 9.861086281912188], [78.55678619284888, 9.860905739575381], [78.5569682514251, 9.860903817620848], [78.55696922050068, 9.860994088775776], [78.55724230836502, 9.860991205632871], [78.55724327752145, 9.861081476760852], [78.55733430681855, 9.86108051565333], [78.5573352760109, 9.861170786772325], [78.55742630532596, 9.86116982562887], [78.55742533610666, 9.86107955452784], [78.55751636538578, 9.861078593375401], [78.55751733462306, 9.861168864467448], [78.55760836392015, 9.861167903288061], [78.55761030247555, 9.861348445454189], [78.55770133180859, 9.861347484229885], [78.55770230112671, 9.861437755303966], [78.55761127177571, 9.861438716537252], [78.55761224107587, 9.861528987620316]], [[78.55724618505361, 9.861352290126822], [78.55724521587024, 9.861262018998843], [78.55733624521224, 9.861261057882338], [78.55733721442257, 9.86135132899235], [78.55724618505361, 9.861352290126822]]]]}, "id": "+9024+10788", "properties": {"count": 35, "water": 1}}, {"type": "Feature", "geometry": {"geodesic": false, "type": "Polygon", "coordinates": [[[78.5665287240918, 9.844100855617782], [78.56661974781036, 9.844099893647876], [78.56661877780951, 9.844009623364313], [78.56670980148316, 9.844008661385425], [78.56670883146435, 9.843918391101862], [78.56679985512002, 9.843917429105007], [78.56679888508324, 9.843827158830427], [78.56707195589756, 9.843824272723083], [78.5670709857979, 9.843734002475452], [78.56716200935476, 9.84373304039775], [78.56716297948137, 9.843823310636397], [78.5672540030562, 9.84382234852276], [78.56725691356179, 9.844093159193786], [78.56716588990611, 9.844094121334372], [78.56716686006865, 9.844184391564037], [78.56698481269441, 9.844186315791307], [78.56698578281204, 9.844276586038937], [78.56662168784798, 9.844280434223986], [78.56662071782019, 9.844190163940423], [78.56652969408366, 9.844191125910328], [78.5665287240918, 9.844100855617782]]]}, "id": "+9138+10977", "properties": {"count": 30, "water": 1}}, {"type": "Feature", "geometry": {"geodesic": false, "type": "Polygon", "coordinates": [[[78.570640320729, 9.845501861092103], [78.57118646272593, 9.845496081466312], [78.57118743411917, 9.845586351291734], [78.57127845778383, 9.84558538792944], [78.57128137208929, 9.845856197378758], [78.57119034836175, 9.845857160776983], [78.57119131979091, 9.845947430602406], [78.57064517705736, 9.845953210497692], [78.570640320729, 9.845501861092103]]]}, "id": "+9182+10957", "properties": {"count": 33, "water": 1}}]}