{"type": "FeatureCollection", "columns": {"count": "Long<0, 4294967295>", "system:index": "String", "water": "Byte<0, 1>"}, "features": [{"type": "Feature", "geometry": {"geodesic": false, "type": "MultiPolygon", "coordinates": [[[[77.99273698625842, 10.951852696200682], [77.99273880192429, 10.952033328656478], [77.99283019988998, 10.952032431544936], [77.99283110776334, 10.952122747768342], [77.99301390372166, 10.952120953446446], [77.9930129957944, 10.952030637241005], [77.99319579167188, 10.952028842838258], [77.9931948836997, 10.9519385266418], [77.99337767948735, 10.95193673214024], [77.9933804036015, 10.95220768066673], [77.99319760764318, 10.952209475213207], [77.9931985156423, 10.95229979140068], [77.99292432157455, 10.952302483040732], [77.99292522949283, 10.952392799255156], [77.99237684097106, 10.952398181843558], [77.99237502546688, 10.952217549333863], [77.99246642351342, 10.952216652321136], [77.9924646079823, 10.952036019820424], [77.99255600597495, 10.95203512278973], [77.99255419041687, 10.951854490306983], [77.99273698625842, 10.951852696200682]]], [[[77.9928274763238, 10.9517614828837], [77.99282656848636, 10.951671166660294], [77.99291796632629, 10.951670269548751], [77.99291887419966, 10.951760585763175], [77.9928274763238, 10.9517614828837]]], [[[77.9928274763238, 10.9517614828837], [77.99282838417021, 10.951851799107107], [77.99273698625842, 10.951852696200682], [77.99273607843895, 10.951762379968292], [77.9928274763238, 10.9517614828837]]]]}, "id": "+2716+8775", "properties": {"count": 41, "water": 1}}, {"type": "Feature", "geometry": {"geodesic": false, "type": "Polygon", "coordinates": [[[77.9977671618459, 10.988384775830404], [77.99785857055545, 10.988383874272202], [77.99785765807373, 10.9882935586866], [77.99794906675632, 10.98829265711043], [77.99794815424765, 10.988202341524827], [77.998130971523, 10.988200538300624], [77.9981300589784, 10.988110222732988], [77.99831287616392, 10.988108419418955], [77.99831561399535, 10.988379366067965], [77.99813279664814, 10.988381169435899], [77.99813553438074, 10.988652116129824], [77.9980441256173, 10.988653017786842], [77.99804686334093, 10.988923964498733], [77.99795545447867, 10.988924866164734], [77.99795636705022, 10.989015181741355], [77.99786495815204, 10.989016083380404], [77.99786404560744, 10.988925767794802], [77.9977726367362, 10.98892666939792], [77.9977671618459, 10.988384775830404]]]}, "id": "+2771+8371", "properties": {"count": 33, "water": 1}}, {"type": "Feature", "geometry": {"geodesic": false, "type": "Polygon", "coordinates": [[[77.99753533337798, 10.97447706721651], [77.9976267378295, 10.974476166853066], [77.99762400417525, 10.974205219781847], [77.99789821723338, 10.974202518601688], [77.99789730594642, 10.974112202926253], [77.99844573169437, 10.974106799865245], [77.99844664314304, 10.974197115486781], [77.99862945171371, 10.97419531422989], [77.99863036323423, 10.974285629842441], [77.99881317183186, 10.974283828459786], [77.9988168181924, 10.974645090820163], [77.99872541378579, 10.974645991560898], [77.99872632536919, 10.974736307155485], [77.99808649411868, 10.974742611586047], [77.99808740551344, 10.974832927234532], [77.99799600099006, 10.974833827759673], [77.99799691237583, 10.97492414341714], [77.99781410324819, 10.97492594441352], [77.9978131919253, 10.974835628738086], [77.99772178737497, 10.97483652919136], [77.99772087608801, 10.974746213506943], [77.99762947155564, 10.974747113924284], [77.99762764906257, 10.974566482546466], [77.9975362445841, 10.974567382918893], [77.99753533337798, 10.97447706721651]]]}, "id": "+2774+8526", "properties": {"count": 88, "water": 1}}, {"type": "Feature", "geometry": {"geodesic": false, "type": "Polygon", "coordinates": [[[77.99875705008753, 10.914218450641833], [77.99884843597088, 10.914217554796917], [77.99884752949889, 10.914127238851988], [77.9989389153463, 10.914126342989103], [77.99893982184524, 10.91421665892505], [77.99912259356702, 10.914214867091486], [77.99912350012885, 10.914305183009464], [77.99930627187757, 10.914303391050137], [77.99930717850228, 10.914393706959132], [77.99939856439461, 10.914392810934553], [77.99939947104626, 10.914483126825582], [77.99949085695656, 10.914482230765069], [77.99949176365311, 10.9145725466561], [77.99967453550066, 10.914570754436259], [77.99967544226011, 10.914661070309323], [77.9998582141346, 10.914659277963718], [77.99986002778824, 10.914839909673914], [77.99995141376142, 10.914839013451704], [77.99995232062867, 10.914929329297818], [78.0000437066288, 10.914928433030692], [78.00004552043515, 10.915109064713938], [77.99958859008417, 10.915113545824985], [77.99958768331574, 10.915023229951922], [77.99940491117175, 10.91502502218973], [77.9994040044662, 10.914934706298698], [77.99922123234916, 10.914936498419724], [77.99922032570649, 10.914846182510727], [77.99912893966145, 10.914847078517342], [77.99912712644799, 10.914666446681382], [77.99903574045683, 10.914667342652065], [77.99903483388603, 10.914577026725102], [77.99894344791285, 10.91457792265985], [77.99894254138697, 10.914487606723904], [77.99885115542277, 10.91448850262272], [77.99884934244287, 10.914307870741846], [77.99875795653257, 10.914308766595745], [77.99875705008753, 10.914218450641833]]]}, "id": "+2786+9190", "properties": {"count": 65, "water": 1}}, {"type": "Feature", "geometry": {"geodesic": false, "type": "Polygon", "coordinates": [[[78.00126466424396, 10.972633822044097], [78.00135606781514, 10.972632920710474], [78.0013551556119, 10.9725426053225], [78.00153796268239, 10.972540802583389], [78.00153887493953, 10.97263111796238], [78.00163027849274, 10.972630216547907], [78.0016311907858, 10.972720531917915], [78.00172259435698, 10.972719630467509], [78.00172441902397, 10.972900261180575], [78.00181582264005, 10.972899359685254], [78.0018176473879, 10.973079990389335], [78.00172624371791, 10.97308089189364], [78.00172715608284, 10.973171207254664], [78.00136154120524, 10.973174813038314], [78.00135880447876, 10.972903866883378], [78.00126740081774, 10.972904768234967], [78.00126466424396, 10.972633822044097]]]}, "id": "+2808+8543", "properties": {"count": 30, "water": 1}}, {"type": "Feature", "geometry": {"geodesic": false, "type": "Polygon", "coordinates": [[[78.00400235969, 10.917779964121411], [78.00427651925345, 10.917777270927274], [78.0042774276748, 10.917867586396095], [78.00509990618549, 10.91785950529553], [78.00510081486733, 10.917949820692487], [78.00537497430503, 10.917947126483252], [78.0053758830767, 10.91803744185326], [78.00683806600478, 10.918023068449388], [78.00683897521662, 10.918113383711598], [78.006930361612, 10.918112485135802], [78.0069312708598, 10.918202800380044], [78.00711404367752, 10.918201003129639], [78.00711495298818, 10.918291318364899], [78.00702356655685, 10.918292217003577], [78.00702447585854, 10.91838253224782], [78.00684170291505, 10.918384329471277], [78.00684261216283, 10.918474644724501], [78.00656845260836, 10.918477340380024], [78.00656754344142, 10.918387025108832], [78.0062019973658, 10.918390618908957], [78.00620108831565, 10.918300303601832], [78.00574415568295, 10.918304795196219], [78.00574324677652, 10.91821447985316], [78.00501215436476, 10.918221664938129], [78.0050112456919, 10.918131349532189], [78.00473708598471, 10.918134043462945], [78.00473617740168, 10.918043728030057], [78.00464479084461, 10.918044625950081], [78.0046438822975, 10.91795431050821], [78.00455249576737, 10.917955208392302], [78.00455340428752, 10.918045523834175], [78.00437063112844, 10.918047319530494], [78.00436972267117, 10.917957004070656], [78.00409556296398, 10.917959697390557], [78.00409465458756, 10.91786938190377], [78.00400326803049, 10.9178702796082], [78.00400235969, 10.917779964121411]]]}, "id": "+2844+9149", "properties": {"count": 95, "water": 1}}, {"type": "Feature", "geometry": {"geodesic": false, "type": "Polygon", "coordinates": [[[78.00746235473, 11.006895703901632], [78.00755376832637, 11.006894797932702], [78.00755193431691, 11.006714168585075], [78.0076433478504, 11.00671326259818], [78.00764243083219, 11.006622947928857], [78.00773384432975, 11.006622041923995], [78.0077329272846, 11.006531727263656], [78.00800716765151, 11.006529009096354], [78.00800625053449, 11.006438694462966], [78.00809766394221, 11.006437788359289], [78.00809582968122, 11.006257159092511], [78.00818724302607, 11.00625625297985], [78.0081863258821, 11.006165938355444], [78.008277739191, 11.006165032224818], [78.00827682202008, 11.006074717609396], [78.00836823530204, 11.006073811451818], [78.00836731811316, 11.00598349684538], [78.00864155780634, 11.005980778237904], [78.00864247507607, 11.006071092826376], [78.0090081280063, 11.00606746760318], [78.00900904539282, 11.006157782155721], [78.00937469830508, 11.006154156465403], [78.00937561580838, 11.006244470990994], [78.00919278931632, 11.006246283908018], [78.00919462425105, 11.00642691298615], [78.00901179761526, 11.006428725822326], [78.00901271503771, 11.006519040374865], [78.00882988831208, 11.006520853112226], [78.00883264045366, 11.006791796814763], [78.00864981353041, 11.006793609489243], [78.00865073087202, 11.006883924077716], [78.00855931737445, 11.006884830379022], [78.00856206937232, 11.00715577414444], [78.00847065577594, 11.007156680445748], [78.00847157309059, 11.00724699503422], [78.00819733218468, 11.007249713794412], [78.00819824942747, 11.007340028409834], [78.00755835349827, 11.007346371279308], [78.00755743645311, 11.007256056609986], [78.00746602273995, 11.00725696261485], [78.00746235473, 11.006895703901632]]]}, "id": "+2882+8172", "properties": {"count": 164, "water": 1}}, {"type": "Feature", "geometry": {"geodesic": false, "type": "MultiPolygon", "coordinates": [[[[78.02159503199782, 10.922213120988042], [78.02159594603363, 10.92230343499261], [78.0215045596023, 10.92230433828456], [78.02150364559346, 10.922214024279993], [78.02159503199782, 10.922213120988042]]], [[[78.02159503199782, 10.922213120988042], [78.02159320396215, 10.922032492996872], [78.0215018176027, 10.922033396270857], [78.02150273159359, 10.922123710275425], [78.02141134520718, 10.922124613531443], [78.02140951728829, 10.921943985495357], [78.02131813095579, 10.921944888715442], [78.02132544258643, 10.922667400877751], [78.02123405602036, 10.922668304124786], [78.02123588395722, 10.922848932178837], [78.02105311068135, 10.922850738619008], [78.02105402460936, 10.922941052659509], [78.02096263793548, 10.922941955843662], [78.02096355183654, 10.923032269893145], [78.02087216512675, 10.923033173059332], [78.02087307900983, 10.923123487117799], [78.02078169226411, 10.92312439026602], [78.02078077840797, 10.923034076207552], [78.0206893916802, 10.92303497931984], [78.02068665023755, 10.922764037108507], [78.02059526359064, 10.922764940166896], [78.02059434981534, 10.922674626090464], [78.02050296318639, 10.922675529121902], [78.02050113572564, 10.922494900942086], [78.02031836253961, 10.922496706888184], [78.0203174488811, 10.922406392784803], [78.02022606230605, 10.922407295708442], [78.02022514867448, 10.922316981596078], [78.02013376211741, 10.922317884483787], [78.02013284853076, 10.922227570362438], [78.02004146199164, 10.922228473214213], [78.02004054843195, 10.922138159083882], [78.01994916191978, 10.922139061908709], [78.01994824839602, 10.922048747769393], [78.01985686190181, 10.922049650558288], [78.01985594841399, 10.921959336409989], [78.01976456193775, 10.921960239162951], [78.01976364848585, 10.92186992500567], [78.01967226202758, 10.921870827722698], [78.0196713486206, 10.921780513556433], [78.01948857573102, 10.921782318891678], [78.01948766237793, 10.92169200471643], [78.01921350308398, 10.92169471248124], [78.01921167656646, 10.921514084076847], [78.01893751735334, 10.92151679156318], [78.01893660419789, 10.921426477334034], [78.01875383139813, 10.921428282175203], [78.01875200521299, 10.92124765368996], [78.01866061886251, 10.921248556047663], [78.01865970580587, 10.92115824180055], [78.01856831947337, 10.921159144131304], [78.01856740645266, 10.921068829866224], [78.01847602013812, 10.921069732161046], [78.01847510715335, 10.920979417895966], [78.01810956193113, 10.920983026760839], [78.01810864906314, 10.920892712459827], [78.01792587645203, 10.920894516717091], [78.0179249636559, 10.920804202407096], [78.01765080476618, 10.92080690855494], [78.0176498920509, 10.920716594217996], [78.01737573317915, 10.920719300105329], [78.01737482056268, 10.920628985750417], [78.0171920479875, 10.920630789522592], [78.01719113543392, 10.920540475140733], [78.0170997491643, 10.920541376977413], [78.01709883663767, 10.920451062595552], [78.01682467787371, 10.92045376792593], [78.01682376543691, 10.920363453517119], [78.0166409929336, 10.920365256920984], [78.01664008056866, 10.920274942494208], [78.01654869433497, 10.920275844142243], [78.01654778199699, 10.920185529715466], [78.01636500956553, 10.920187332921703], [78.01636409729043, 10.920097018467978], [78.01627271109267, 10.92009792002618], [78.0162717988535, 10.920007605572454], [78.01608902647595, 10.92000940858106], [78.01608720214134, 10.919828779637676], [78.01599581599748, 10.919829681088082], [78.0159949038661, 10.919739366607406], [78.01581213161433, 10.9197411694094], [78.01581121954582, 10.91965085491076], [78.01562844731201, 10.919652657595972], [78.0156275353064, 10.919562343079365], [78.01544476309952, 10.919564145638814], [78.0154438511568, 10.91947383110424], [78.01535246506684, 10.919474732339049], [78.01535155316004, 10.919384417795492], [78.01516878101606, 10.919386220157312], [78.01516786917215, 10.919295905604772], [78.01498509704612, 10.919297707840826], [78.01498418526509, 10.919207393279303], [78.01452725495004, 10.919211898357403], [78.01452634332172, 10.919121583750963], [78.01406941294378, 10.91912608811041], [78.01406850145021, 10.919035773459056], [78.01388572929724, 10.919037575003408], [78.01388481787554, 10.91894726034307], [78.01361065966854, 10.918949962421546], [78.01360883701378, 10.91876933304697], [78.01342606494165, 10.918771134267931], [78.01342424243062, 10.918590504866406], [78.01324147043935, 10.918592305943635], [78.01324055924222, 10.918501991229398], [78.01269224325043, 10.918507393769382], [78.01269133223298, 10.91841707901023], [78.01250856022372, 10.918418879620335], [78.01250947118729, 10.918509194406436], [78.01241808515123, 10.918510094680048], [78.01241717421462, 10.918419779893945], [78.01214301611542, 10.918422480526134], [78.01214210526864, 10.918332165713082], [78.01195933322346, 10.91833396599081], [78.01195842243956, 10.918243651159793], [78.01177565042133, 10.918245451311757], [78.01177473970031, 10.918155136471755], [78.0113178096368, 10.918159636330643], [78.0113168990595, 10.918069321445726], [78.01095135497813, 10.918072920815407], [78.01095044452661, 10.917982605903541], [78.01076767249042, 10.917984405408717], [78.0107667620928, 10.917894090478885], [78.01067537609266, 10.917894990186557], [78.01067446573995, 10.917804675247742], [78.01040030776652, 10.917807374173131], [78.01039939750365, 10.917717059216349], [78.01049078346784, 10.91771615960749], [78.01048896290615, 10.91753552970291], [78.01039757699586, 10.9175364292938], [78.01039666675095, 10.917446114328037], [78.01021389494831, 10.917447913419988], [78.01021298476628, 10.917357598436256], [78.00984744117899, 10.917361196260835], [78.00984835125323, 10.917451511262533], [78.00975696530699, 10.917452410655795], [78.0097560552687, 10.917362095645114], [78.00966466934044, 10.917362995002444], [78.00966557935178, 10.91745331003109], [78.0094828074234, 10.91745510868287], [78.00948189746593, 10.917364793636255], [78.00957328341217, 10.917363894332825], [78.00957237342777, 10.917273579304178], [78.00948098751748, 10.917274478598625], [78.00948007757799, 10.917184163560995], [78.00975423521007, 10.917181465605786], [78.0097551452304, 10.91727178062545], [78.01030346044963, 10.917266383942481], [78.01030437064964, 10.91735669891723], [78.01094407156357, 10.917350401493525], [78.0109449819612, 10.917440716414376], [78.01112775363806, 10.917438916891232], [78.01112866409858, 10.917529231794116], [78.01185975068925, 10.917522032551698], [78.01186066137433, 10.9176123473917], [78.01222620459332, 10.91760874708777], [78.01222711540417, 10.91769906189184], [78.01268404438073, 10.917694560865142], [78.01268495533532, 10.917784875633277], [78.01305049848243, 10.917781274287304], [78.0130514095538, 10.91787158902849], [78.01341695268295, 10.917867987215393], [78.01341786387108, 10.917958301929628], [78.01378340698227, 10.917954699649407], [78.0137843182872, 10.918045014327712], [78.0141498613804, 10.918041411580367], [78.01415077281109, 10.91813172623172], [78.01451631588634, 10.91812812301725], [78.01451722743381, 10.918218437632673], [78.01497415623072, 10.918213932976782], [78.01497506792191, 10.918304247547288], [78.01543199666492, 10.918299742172746], [78.01543290849985, 10.918390056707318], [78.01570706572768, 10.918387353128656], [78.01570797766144, 10.918477667645265], [78.01598213489825, 10.918474963797108], [78.01598304691284, 10.918565278286765], [78.01625720416763, 10.918562574178099], [78.01625811627206, 10.918652888640807], [78.01653227353582, 10.918650184262644], [78.01653318573905, 10.918740498707386], [78.0168073430118, 10.918737794059728], [78.0168082552959, 10.918828108477522], [78.01699102682903, 10.91882630522637], [78.016991939176, 10.91891661963518], [78.01726609649367, 10.918913914529382], [78.01726700893946, 10.919004228911241], [78.01763255203267, 10.919000621699269], [78.01763346458625, 10.919090936045196], [78.01781623613735, 10.919089132255055], [78.0178171487628, 10.919179446592], [78.01809130611639, 10.919176740686702], [78.01809221883167, 10.919267054996697], [78.01845776196082, 10.919263446706745], [78.01845867479288, 10.919353760989791], [78.0185500605864, 10.9193528588387], [78.0185509734544, 10.919443173112763], [78.0187337450594, 10.91944136872075], [78.01873465799027, 10.919531682976846], [78.01910020122722, 10.919528073833495], [78.01910111428386, 10.91961838805366], [78.01919250009533, 10.919617485695957], [78.01919341317893, 10.919707799907137], [78.01946757066727, 10.919705092645382], [78.01946848384068, 10.919795406838595], [78.01955986967911, 10.919794504346147], [78.01956078289746, 10.919884818530377], [78.01974355460126, 10.919883013464629], [78.01974446787351, 10.919973327630892], [78.01992723961325, 10.91997152243938], [78.01992815294837, 10.92006183659666], [78.02011092470607, 10.920060031279384], [78.02011183810407, 10.9201503454187], [78.02029460988874, 10.920148539975658], [78.02029552334962, 10.920238854097008], [78.02038690925093, 10.92023795132608], [78.02038782275673, 10.920328265438444], [78.02057059459528, 10.920326459806757], [78.02057150815499, 10.920416773901158], [78.0207542800205, 10.920414968143705], [78.02075519364307, 10.920505282229122], [78.02084657959828, 10.920504379296498], [78.0208474932568, 10.92059469337293], [78.02103026518519, 10.920592887417849], [78.02103117890658, 10.920683201476317], [78.02112256488874, 10.92068229845386], [78.02112347864606, 10.92077261249436], [78.0212148646462, 10.920771709435972], [78.02121577843945, 10.920862023476472], [78.02130716445754, 10.92086112038215], [78.02130807828674, 10.920951434413668], [78.0213994643228, 10.920950531283413], [78.02140129206202, 10.921131159328482], [78.02149267815199, 10.921130256162296], [78.02149359206201, 10.921220570175846], [78.02158497816096, 10.921219666964744], [78.02158589210693, 10.921309980969312], [78.02167727823283, 10.92130907773126], [78.02167819221474, 10.921399391726846], [78.02186096449347, 10.921397585151928], [78.02186187852926, 10.921487899129545], [78.02195326469109, 10.921486995792678], [78.02195509285252, 10.921667623738932], [78.02204647905927, 10.92166672035715], [78.02204739317592, 10.921757034325786], [78.02213877940062, 10.92175613090807], [78.0221396935622, 10.921846444867722], [78.02241385225429, 10.921843734434916], [78.02241476650568, 10.921934048367618], [78.02232338025402, 10.921934951875164], [78.02232520872089, 10.922115579758536], [78.02223382240635, 10.9221164832571], [78.02223473662181, 10.922206797198784], [78.0217778047886, 10.922211314332275], [78.0217787188783, 10.922301628309894], [78.02168733246495, 10.922302531664727], [78.0216864184022, 10.922212217678124], [78.02159503199782, 10.922213120988042]], [[78.0160780809354, 10.91892563486686], [78.01671778178647, 10.91891932448945], [78.0167205186477, 10.919190267760793], [78.01662913275538, 10.91919116935493], [78.01662822048925, 10.91910085491917], [78.01635406283023, 10.919103559494962], [78.0163549750155, 10.919193873948688], [78.01617220315897, 10.91919567688543], [78.0161712910276, 10.919105362413738], [78.01607990510831, 10.91910626382821], [78.0160780809354, 10.91892563486686]], [[78.0169105894866, 10.919910979762154], [78.01709336166653, 10.919909176277441], [78.01709427413925, 10.9199994906593], [78.01691150191442, 10.920001294161981], [78.0169105894866, 10.919910979762154]], [[78.01718383524782, 10.919817960103815], [78.01736660731994, 10.919816156475372], [78.0173684324271, 10.91999678520316], [78.01727704633714, 10.919997687048824], [78.01727613381051, 10.919907372675945], [78.01718474773851, 10.919908274485676], [78.01718383524782, 10.919817960103815]], [[78.0176435032865, 10.920084393841417], [78.01773488936747, 10.920083491878973], [78.01773580205581, 10.920173806215919], [78.01764441594787, 10.920174708187346], [78.0176435032865, 10.920084393841417]], [[78.02086302671808, 10.922130032483647], [78.0209544131494, 10.922129129398309], [78.02095532698756, 10.922219443447792], [78.02104671343685, 10.922218540326522], [78.02104762731096, 10.922308854367023], [78.02086485433153, 10.922310660609565], [78.02086302671808, 10.922130032483647]], [[78.02086302671808, 10.922130032483647], [78.0206802538195, 10.922131838591442], [78.02067842634078, 10.921951210438575], [78.02076981274516, 10.92195030741612], [78.02077072650248, 10.92204062148357], [78.02086211291584, 10.92203971842518], [78.02086302671808, 10.922130032483647]]]]}, "id": "+2904+9155", "properties": {"count": 1835, "water": 1}}, {"type": "Feature", "geometry": {"geodesic": false, "type": "Polygon", "coordinates": [[[78.01599321537473, 11.009701377479317], [78.01608462911484, 11.009700468707642], [78.01608370926694, 11.009610154765957], [78.01654077771593, 11.009605610530294], [78.01654169770757, 11.009695924436047], [78.01672452508896, 11.009694106533374], [78.0167254451345, 11.00978442042116], [78.01681685884765, 11.009783511424907], [78.01681961912797, 11.010054453070302], [78.01663679153997, 11.010056271080774], [78.01663587149443, 11.009965957192987], [78.0165444577184, 11.009966866144325], [78.0165435377088, 11.009876552247555], [78.01608646883759, 11.009881096591014], [78.01608554897172, 11.009790782649329], [78.01599413520466, 11.009791691429985], [78.01599321537473, 11.009701377479317]]]}, "id": "+2968+8131", "properties": {"count": 26, "water": 1}}, {"type": "Feature", "geometry": {"geodesic": false, "type": "Polygon", "coordinates": [[[78.02439976462618, 10.928417658271478], [78.02458254074072, 10.928415848920766], [78.02458437168694, 10.928596476345996], [78.02467575978014, 10.928595571616741], [78.02467667529817, 10.928685885315883], [78.02476806340933, 10.928684980550694], [78.02477081008018, 10.92895592163015], [78.0248621982722, 10.928955016820046], [78.02486402947892, 10.929135644182395], [78.02495541771586, 10.929134739327376], [78.02495724901242, 10.929315366680742], [78.02504863730324, 10.929314461780805], [78.02505230009398, 10.929675716442622], [78.02496091169535, 10.929676621378489], [78.02496365879739, 10.929947562395062], [78.02505504727687, 10.929946657432247], [78.02505687877105, 10.930127284758662], [78.02514826729545, 10.930126379759912], [78.02514918308296, 10.93021669342312], [78.024875017393, 10.930219408356487], [78.02487318599763, 10.930038780994138], [78.02478179747324, 10.930039685903058], [78.02477813488012, 10.929678431160394], [78.02468674646353, 10.92967933600643], [78.02468491526578, 10.929498708617132], [78.02459352689411, 10.929499613427234], [78.02458986471422, 10.929138358603723], [78.02449847644135, 10.929139263350944], [78.02449481450401, 10.928778008482515], [78.02440342632995, 10.928778913175838], [78.02439976462618, 10.928417658271478]]]}, "id": "+3065+9029", "properties": {"count": 65, "water": 1}}, {"type": "Feature", "geometry": {"geodesic": false, "type": "MultiPolygon", "coordinates": [[[[78.02698218327498, 10.948714656684775], [78.02689078920798, 10.94871556374965], [78.02688895341088, 10.948534936953239], [78.02679755938878, 10.948535843973199], [78.0267957236815, 10.948355217158822], [78.02670432971333, 10.948356124133864], [78.02670249409587, 10.948175497301522], [78.02679388801016, 10.948174590335462], [78.02679480584582, 10.948264903747141], [78.02688619977808, 10.94826399674515], [78.0268871176497, 10.948354310147845], [78.0269785115999, 10.94835340310992], [78.02698218327498, 10.948714656684775]]], [[[78.03935072740134, 10.95157225963223], [78.03935164933334, 10.95166257196593], [78.0389860736133, 10.951666215847133], [78.0389851517891, 10.951575903486482], [78.03935072740134, 10.95157225963223]]], [[[78.03935072740134, 10.95157225963223], [78.03934980547834, 10.951481947298527], [78.03925841161795, 10.95148285828904], [78.03925748972189, 10.951392545946355], [78.03825215701508, 10.951402565018416], [78.0382530786057, 10.951492877450931], [78.03779610872884, 10.951497430517033], [78.03779703018473, 10.951587742985483], [78.03715727183251, 10.951594116191064], [78.03715819309976, 10.951684428704429], [78.03606146323574, 10.95169535118522], [78.03606238418857, 10.9517856637974], [78.03587959570422, 10.951787483838064], [78.03588051660316, 10.95187779646821], [78.03551493944582, 10.951881436262077], [78.03551586023696, 10.951971748919172], [78.03496749408323, 10.951977207837425], [78.03496841472165, 10.952067520539435], [78.03487702031329, 10.952068430272305], [78.03487794093374, 10.9521587429833], [78.03451236308472, 10.952162381663257], [78.03451144257205, 10.952072068925315], [78.03414586470505, 10.95207570714713], [78.03414678510093, 10.952166019912024], [78.03378120700036, 10.952169657729598], [78.03378028671229, 10.952079344928773], [78.03350610312788, 10.952082072977543], [78.0335070233351, 10.952172385796334], [78.03341562876506, 10.952173295106999], [78.03341654894533, 10.952263607934773], [78.03241120783028, 10.952273608546454], [78.03241028794645, 10.95218329563783], [78.0322274986087, 10.952185113558471], [78.03222841842965, 10.95227542648506], [78.03168005004812, 10.952280879654094], [78.03167913038887, 10.952190566673606], [78.03177052511164, 10.952189657892948], [78.03176960542544, 10.952099344921443], [78.03149542132, 10.952102071173583], [78.03149450172363, 10.952011758175129], [78.03103752818164, 10.952016301341796], [78.03103660873798, 10.951925988307408], [78.03076242459662, 10.951928713858862], [78.03076150525177, 10.951838400797525], [78.03003034740674, 10.951845667665118], [78.03002942828647, 10.951755354540898], [78.029846638796, 10.951757170970335], [78.02984571973862, 10.951666857837134], [78.02975432501586, 10.951667766006937], [78.0297534059944, 10.951577452864752], [78.02947922184406, 10.951580177167548], [78.0294773839898, 10.95139955083826], [78.02938598931195, 10.951400458873316], [78.02938507042523, 10.9513101456952], [78.02929367576536, 10.951311053694322], [78.02929275691459, 10.951220740516204], [78.02910996763073, 10.951222556415635], [78.02910904884284, 10.95113224321955], [78.02901765420991, 10.951133151119858], [78.02901673545796, 10.951042837905808], [78.02892534085196, 10.951043745779167], [78.02892442213594, 10.950953432556133], [78.02874163295091, 10.950955248195053], [78.02874071429777, 10.950864934963036], [78.02855792513968, 10.950866750476193], [78.02855700654942, 10.950776437226208], [78.02846561197937, 10.95077734493787], [78.02846469342504, 10.950687031678905], [78.02837329888193, 10.95068793934565], [78.02837238036354, 10.950597626086685], [78.02818959130427, 10.950599441330345], [78.02818775440224, 10.95041881477648], [78.02827914887348, 10.950417907181599], [78.02827823040897, 10.950327593904667], [78.02818683595571, 10.950328501490565], [78.02818591752714, 10.950238188213632], [78.02809452309182, 10.950239095763598], [78.0280936046992, 10.950148782477681], [78.02800221028185, 10.950149689991715], [78.02800129192516, 10.950059376687832], [78.02790989753477, 10.950060284174915], [78.02790806088424, 10.949879657558169], [78.02781666654775, 10.949880565000337], [78.02781574826292, 10.949790251687471], [78.02772435393541, 10.949791159084723], [78.02772343568651, 10.949700845762875], [78.02763204138594, 10.949701753133176], [78.027630204969, 10.949521126471513], [78.02744741644872, 10.949522941095337], [78.0274455801755, 10.949342314397741], [78.02735418595579, 10.949343221660246], [78.0273532678596, 10.949252908302466], [78.02726187366683, 10.949253815520054], [78.02726003754633, 10.949073188786526], [78.02716864339848, 10.949074095968182], [78.0271668073678, 10.948893469216687], [78.02725820147073, 10.948892562052997], [78.02725911950404, 10.94898287541976], [78.02735051362494, 10.948981968229122], [78.02735143169417, 10.949072281586902], [78.02744282582405, 10.949071374351348], [78.0274437439382, 10.949161687700146], [78.02753513809505, 10.949160780428658], [78.02753605623614, 10.949251093777457], [78.0278102387336, 10.94924837178333], [78.02781115696452, 10.949338685105179], [78.02799394531412, 10.94933687029271], [78.0279911904686, 10.949065930381064], [78.02789979638364, 10.949066837778314], [78.02789795991278, 10.948886211152585], [78.02780656587274, 10.94888711850492], [78.02780564767774, 10.948796805183072], [78.02771425366463, 10.948797712499475], [78.02771333550557, 10.948707399168644], [78.02762194150145, 10.948708306458098], [78.0276210233783, 10.948617993118283], [78.02752962940114, 10.948618900371805], [78.02752871131393, 10.948528587023008], [78.02743731734574, 10.948529494231613], [78.0274354812522, 10.948348867525034], [78.02752687515749, 10.948347960325412], [78.02752320295241, 10.947986706930221], [78.02743180916389, 10.947987614102894], [78.02742997316017, 10.947806987378348], [78.02733857940757, 10.947807894506106], [78.02733674350266, 10.947627267772578], [78.02724534979498, 10.947628174855419], [78.02724443187846, 10.947537861479672], [78.02706164450802, 10.947539675546539], [78.02706439811386, 10.947810615718696], [78.02688161054581, 10.947812429731666], [78.02687335043795, 10.94699960906248], [78.02678195689198, 10.947000515947693], [78.02677828605233, 10.946639262274024], [78.02668689260517, 10.946640169105336], [78.02668597494916, 10.946549855684673], [78.02677736836038, 10.94654894885336], [78.02677553301243, 10.946368322012034], [78.02668413964612, 10.94636922882538], [78.02667771635048, 10.945737034799892], [78.02658632317281, 10.945737941523408], [78.02657898295777, 10.945015433969457], [78.0264875899957, 10.945016340612124], [78.02648575507894, 10.944835713698932], [78.02657714798711, 10.944834807074232], [78.02657164326376, 10.944292926379575], [78.02666303600125, 10.944292019763857], [78.02665844881714, 10.943840452534777], [78.02656705622337, 10.94384135910558], [78.02656430409077, 10.943570418744777], [78.02665569660368, 10.94356951219194], [78.02665110974296, 10.943117944944897], [78.02655971736479, 10.943118851452816], [78.02655696542084, 10.942847911065062], [78.02664835771816, 10.942847004584092], [78.02664560576521, 10.942576064214306], [78.0267369979727, 10.942575157724352], [78.02673241140843, 10.942123590477307], [78.02691519551797, 10.942121777488417], [78.02691794759667, 10.942392717795322], [78.02682655546106, 10.94239362433019], [78.02683205967236, 10.942935504961966], [78.02674066736606, 10.942936411514802], [78.02675809873398, 10.944652366875708], [78.02684949157029, 10.944651460179141], [78.02685316180806, 10.94501271387976], [78.02694455474318, 10.945011807129296], [78.02695006050857, 10.945553687617341], [78.02704145360539, 10.945552780786027], [78.02704420668123, 10.945823721003102], [78.02713559984991, 10.945822814126872], [78.02713835307846, 10.946093754308013], [78.02722974631901, 10.946092847377885], [78.02723249970028, 10.94636378754106], [78.02732389302167, 10.946362880557032], [78.02732481085735, 10.946453193941762], [78.02723341751798, 10.94645410092579], [78.02723433533569, 10.946544414301536], [78.02732572870201, 10.946543507317509], [78.02733307177368, 10.947266014296538], [78.0274244653556, 10.947265107213697], [78.02742538330804, 10.947355420580461], [78.02751677690793, 10.947354513461686], [78.0275186128847, 10.947535140168265], [78.0276100065295, 10.94753423301356], [78.02761184258712, 10.947714859702172], [78.02770323628582, 10.947713952502548], [78.02770507243326, 10.947894579173195], [78.02779646617688, 10.94789367193764], [78.02779738429103, 10.947983985259489], [78.02788877806158, 10.947983077979018], [78.02788969621167, 10.948073391300866], [78.02798108999121, 10.948072483993446], [78.02798200817723, 10.948162797297329], [78.02807340198372, 10.948161889953976], [78.02807432019668, 10.948252203257857], [78.02816571402114, 10.94825129586959], [78.02816663227902, 10.948341609164487], [78.02825802612145, 10.94834070174927], [78.02825986271806, 10.948521328321101], [78.0283512566054, 10.948520420860968], [78.02835217493515, 10.9486107341379], [78.02844356884944, 10.948609826641833], [78.02844448721511, 10.948700139909782], [78.02853588114736, 10.948699232386767], [78.02853771796856, 10.9488798589047], [78.02862911194573, 10.948878951327785], [78.02863094885676, 10.949059577836733], [78.02872234287884, 10.949058670214903], [78.02872326137029, 10.949148983464887], [78.02881465541932, 10.949148075816106], [78.0288155739467, 10.949238389048123], [78.02890696800472, 10.949237481363411], [78.028907886577, 10.949327794586445], [78.028999280653, 10.9493268868658], [78.02900019925224, 10.949417200088833], [78.02909159335516, 10.949416292332256], [78.02909251199034, 10.949506605537323], [78.02918390611124, 10.949505697753795], [78.02918482479133, 10.949596010949879], [78.0292762189302, 10.94959510313042], [78.02927713763724, 10.949685416317521], [78.02936853179408, 10.949684508462129], [78.02936945053705, 10.949774821649228], [78.02946084472083, 10.94977391374892], [78.02946176349974, 10.949864226927039], [78.02955315770149, 10.949863318999782], [78.02955407651632, 10.949953632168915], [78.02964547073603, 10.949952724205726], [78.0296463895868, 10.950043037365877], [78.02982917805319, 10.950041221331698], [78.02983009696683, 10.950131534482868], [78.0299214912135, 10.950130626420862], [78.02992241016308, 10.950220939554065], [78.0300138044367, 10.950220031456126], [78.03001472342221, 10.950310344580346], [78.03010611770482, 10.95030943645546], [78.03010703672626, 10.950399749570694], [78.03019843103581, 10.950398841400892], [78.0301993500932, 10.950489154516127], [78.03029074442071, 10.950488246310393], [78.03029166351402, 10.950578559416645], [78.0303830578595, 10.950577651174976], [78.03038397698874, 10.950667964272245], [78.03047537136118, 10.950667056003628], [78.03047720969154, 10.950847682171219], [78.03056860410888, 10.950846773857684], [78.03056952331899, 10.950937086936987], [78.03066091775429, 10.950936178587522], [78.03066183699134, 10.951026491657842], [78.0308446258889, 10.951024674860095], [78.03084554519782, 10.95111498791245], [78.03093693966906, 10.951114079464169], [78.03093785900492, 10.951204392516523], [78.03112064796538, 10.951202575521148], [78.0311215673731, 10.95129288854655], [78.03176132867179, 10.951286528168913], [78.03176224828614, 10.9513768411494], [78.0318536427484, 10.951375932404677], [78.03185272311609, 10.95128561943317], [78.03340642735753, 10.951270166766367], [78.0334055072581, 10.95117985392961], [78.03386247851836, 10.95117530756494], [78.03386155829317, 10.951084994764114], [78.03413574086248, 10.951082266634495], [78.03413482056543, 10.950991953860619], [78.03440900298202, 10.950989225515404], [78.03440808260412, 10.950898912759495], [78.034682264868, 10.950896184189702], [78.03468134441822, 10.95080587146074], [78.03495552652939, 10.950803142666368], [78.03495460599876, 10.950712829955375], [78.03513739398005, 10.950711010642346], [78.03513647340452, 10.950620697949319], [78.0355020491515, 10.950617059017832], [78.03550112847715, 10.950526746351754], [78.03577531011221, 10.95052401689263], [78.035774389366, 10.9504337042535], [78.03604857084834, 10.950430974569796], [78.03604765003026, 10.950340661948633], [78.03641322512146, 10.950337022020017], [78.03641230419558, 10.950246709434788], [78.03668648534556, 10.950243979221078], [78.03668556433882, 10.950153666653815], [78.03677695801058, 10.950152756534667], [78.03677603699487, 10.950062443976387], [78.03686743063066, 10.950061533839273], [78.03686835168232, 10.950151846397555], [78.03705113898987, 10.950150026024513], [78.03705021788431, 10.9500597134842], [78.03732439870191, 10.950056982749466], [78.03732347751553, 10.949966670236101], [78.0376890517174, 10.949963028906113], [78.0376881304322, 10.9498727164197], [78.03787091743432, 10.949870895606484], [78.03786999610419, 10.949780583138034], [78.03823556988387, 10.949776941206176], [78.03823464845493, 10.949686628764676], [78.03869161536734, 10.949682075788406], [78.03869069380366, 10.94959176338284], [78.03896487376787, 10.94958903129165], [78.0389639521323, 10.949498718913032], [78.0393295252023, 10.949495075768448], [78.03932860345897, 10.949404763416782], [78.03969417628642, 10.949401119867956], [78.03969325444426, 10.949310807543236], [78.04005882702917, 10.949307163590168], [78.04005790508819, 10.949216851301383], [78.04042347743953, 10.949213206944073], [78.04042532155505, 10.949393831458762], [78.04051671466983, 10.949392920279603], [78.04052409167087, 10.950115418257512], [78.04061548501025, 10.950114506997505], [78.04062286274791, 10.950837004876599], [78.04071425629388, 10.950836093517777], [78.04072163476818, 10.951558591298056], [78.0402646658525, 10.951563148092168], [78.040265588054, 10.951653460345021], [78.04017419422055, 10.951654371631976], [78.04017327203704, 10.95156405937014], [78.03999048439711, 10.951565881836256], [78.03999140652672, 10.95165619411606], [78.03944304323863, 10.951661660930501], [78.03944212127969, 10.9515713485968], [78.03935072740134, 10.95157225963223]], [[78.02836319559282, 10.949694493416175], [78.02882016671833, 10.949689955208207], [78.02882108529961, 10.949780268440223], [78.02891247951932, 10.949779360710595], [78.02891339813654, 10.949869673933629], [78.0290047923832, 10.949868766168068], [78.02900571103635, 10.949959079382118], [78.02909710530098, 10.949958171580626], [78.02909802399004, 10.950048484785693], [78.02918941827264, 10.950047576948267], [78.02919033699764, 10.950137890153334], [78.02928173129821, 10.950136982279975], [78.02928265005914, 10.950227295467077], [78.0294654386962, 10.950225479630527], [78.02946635752004, 10.950315792799662], [78.02955775185653, 10.950314884836471], [78.02955867071628, 10.950405197996623], [78.02965006507074, 10.9504042899975], [78.02965098395744, 10.95049460315765], [78.02974237833885, 10.950493695113613], [78.02974329726149, 10.950584008264782], [78.02992608604228, 10.950582192086873], [78.02992700503678, 10.950672505220075], [78.03001839944514, 10.950671597086204], [78.0300193184666, 10.950761910210423], [78.03011071289292, 10.95076100204062], [78.03011163195929, 10.950851315155857], [78.03020302640358, 10.95085040695012], [78.03020486460818, 10.95103103317161], [78.030113470101, 10.951031941386328], [78.03011438919432, 10.951122254501565], [78.02993160010811, 10.951124070877102], [78.02993068107767, 10.951033757752883], [78.02983928655253, 10.951034665886754], [78.02983836755803, 10.95094435275355], [78.02974697305085, 10.950945260851489], [78.02974605409229, 10.950854947709303], [78.02965465960308, 10.950855855780292], [78.02965374068044, 10.95076554262014], [78.02947095173795, 10.9507673586633], [78.0294718706067, 10.950857671832436], [78.02919768704923, 10.950860395713024], [78.02919676827032, 10.95077008251694], [78.02910537376316, 10.950770990417247], [78.02910353626822, 10.950590364016096], [78.02901214180596, 10.950591271871488], [78.02901122309892, 10.950500958657438], [78.02891982866362, 10.950501866476898], [78.02891890999251, 10.950411553253865], [78.02882751556618, 10.950412461046374], [78.028826596931, 10.950322147814358], [78.02873520253162, 10.950323055561952], [78.02873428393238, 10.950232742329936], [78.02864288955098, 10.950233650041598], [78.02864197098766, 10.950143336800599], [78.02855057662421, 10.95014424448531], [78.02854965809684, 10.950053931235328], [78.02845826376034, 10.950054838875124], [78.02845642677745, 10.949874212357193], [78.02836503248588, 10.949875119961057], [78.02836319559282, 10.949694493416175]], [[78.0327731066111, 10.951908720801185], [78.03304729022247, 10.951905993453101], [78.03304913033149, 10.952086619180516], [78.03295773574347, 10.952087528338465], [78.0329568157159, 10.951997215465775], [78.03277402658478, 10.951999033691843], [78.0327731066111, 10.951908720801185]]], [[[78.02698218327498, 10.948714656684775], [78.027073577333, 10.94871374959295], [78.02707449529444, 10.94880406297768], [78.02698310120948, 10.948804970078488], [78.02698218327498, 10.948714656684775]]], [[[78.02707449529444, 10.94880406297768], [78.02716588937042, 10.94880315584094], [78.0271668073678, 10.948893469216687], [78.02707541326487, 10.948894376353428], [78.02707449529444, 10.94880406297768]]]]}, "id": "+3089+8877", "properties": {"count": 2450, "water": 1}}, {"type": "Feature", "geometry": {"geodesic": false, "type": "Polygon", "coordinates": [[[78.0280175506862, 11.032252453998899], [78.02810897037315, 11.032251539756484], [78.02810619403994, 11.031980601354007], [78.02819761363705, 11.031979687111594], [78.02819576273028, 11.031799061509943], [78.02837860178977, 11.0317972329802], [78.02837952728808, 11.031887545763059], [78.02856236636553, 11.03188571710755], [78.02856329192672, 11.031976029872443], [78.02847187236553, 11.031976944222654], [78.02847464903112, 11.032247882544283], [78.02838322938011, 11.032248796885511], [78.02838600602773, 11.032519735225106], [78.02829458628689, 11.032520649566335], [78.02829643737333, 11.032701275132053], [78.02820501756061, 11.032702189464299], [78.02820409204433, 11.032611876672457], [78.02802125245483, 11.032613705238132], [78.0280175506862, 11.032252453998899]]]}, "id": "+3095+7884", "properties": {"count": 34, "water": 1}}, {"type": "Feature", "geometry": {"geodesic": false, "type": "MultiPolygon", "coordinates": [[[[78.02865008359214, 11.031523551688784], [78.02874150300062, 11.031522637320606], [78.02874242858876, 11.031612950076514], [78.02865100915334, 11.031613864453677], [78.02865008359214, 11.031523551688784]]], [[[78.02865008359214, 11.031523551688784], [78.0283758253218, 11.031526294631622], [78.02837489985943, 11.031435981848762], [78.02846631925892, 11.031435067570415], [78.02846261734656, 11.031073816447963], [78.02864545590299, 11.031071987873302], [78.02864453038673, 11.03098167510841], [78.02891878808214, 11.030978932066757], [78.02891416022231, 11.030527368341108], [78.02918841742365, 11.030524625164707], [78.02918934306568, 11.030614937884685], [78.0290979239806, 11.030615852315746], [78.02909884959568, 11.030706165044705], [78.02900743047468, 11.030707079448817], [78.0290083560718, 11.03079739218676], [78.02909977522874, 11.030796477773666], [78.02910162650383, 11.030977103231587], [78.02901020730197, 11.030978017662646], [78.02901298420112, 11.03124895585851], [78.02892156490044, 11.031249870289571], [78.02892249052452, 11.031340183027513], [78.02864823249672, 11.031342926167982], [78.02865008359214, 11.031523551688784]]]]}, "id": "+3104+7898", "properties": {"count": 37, "water": 1}}, {"type": "Feature", "geometry": {"geodesic": false, "type": "Polygon", "coordinates": [[[78.04079427807567, 10.922835638514004], [78.04097704798285, 10.922833820278953], [78.04097612804512, 10.922743507918302], [78.04115889786247, 10.92274168959342], [78.0411598178541, 10.922832001945087], [78.04143397260259, 10.922829274228693], [78.04143581278348, 10.92300989887813], [78.04134442781641, 10.923010808161845], [78.04134718805182, 10.92328174516295], [78.04125580299493, 10.923282654446663], [78.0412567230674, 10.923372966780363], [78.04116533797458, 10.923373876046112], [78.0411662580201, 10.923464188388795], [78.04107487290032, 10.923465097627593], [78.04107395287276, 10.923374785275927], [78.04098256777094, 10.923375694478791], [78.0409816477883, 10.923285382109157], [78.04079887760264, 10.923287200425056], [78.04079427807567, 10.922835638514004]]]}, "id": "+3247+9090", "properties": {"count": 38, "water": 1}}, {"type": "Feature", "geometry": {"geodesic": false, "type": "Polygon", "coordinates": [[[78.04249838152285, 10.919657432267472], [78.04268114919323, 10.919655613538348], [78.04268022901296, 10.919565301294478], [78.04295438038378, 10.919562573021128], [78.04295346013163, 10.919472260804207], [78.04304484387698, 10.919471351331847], [78.04304760474122, 10.919742287973627], [78.04313898855844, 10.919741378447368], [78.04314174957538, 10.920012315053214], [78.04286759784523, 10.92001504360504], [78.04286851811534, 10.920105355830943], [78.04250298225357, 10.920108993549704], [78.04249838152285, 10.919657432267472]], [[78.04286483707084, 10.919744106927329], [78.04295622090602, 10.919743197463951], [78.04295714118513, 10.919833509680872], [78.04286575732299, 10.919834419153233], [78.04286483707084, 10.919744106927329]]]}, "id": "+3268+9126", "properties": {"count": 35, "water": 1}}, {"type": "Feature", "geometry": {"geodesic": false, "type": "Polygon", "coordinates": [[[78.04407216797078, 11.002014625789183], [78.0441635769588, 11.002013709193182], [78.04416264922368, 11.001923397560168], [78.04461969389428, 11.00191881422084], [78.04461876601543, 11.00182850263274], [78.04471017490464, 11.00182758589301], [78.04471110280144, 11.001917897472127], [78.04480251169963, 11.001916980696464], [78.04480158377588, 11.001826669117348], [78.04489299263813, 11.001825752323718], [78.0448948485575, 11.002006375463985], [78.04462062177312, 11.002009125817922], [78.04462154965195, 11.002099437406024], [78.044712958622, 11.002098520648326], [78.04471388654576, 11.002188832227443], [78.0448052955248, 11.00218791542483], [78.04480622348449, 11.002278227003947], [78.0447148144785, 11.002279143815542], [78.04471667036195, 11.002459766973775], [78.04453385219726, 11.002461600543068], [78.04453199642161, 11.002280977348903], [78.04425776928689, 11.00228372744233], [78.04425684149788, 11.002193415818297], [78.04416543246495, 11.002194332459213], [78.04416450471187, 11.002104020826199], [78.0440730956969, 11.002104937422198], [78.04407216797078, 11.002014625789183]]]}, "id": "+3279+8214", "properties": {"count": 32, "water": 1}}, {"type": "Feature", "geometry": {"geodesic": false, "type": "Polygon", "coordinates": [[[78.0453913391685, 10.99694342773593], [78.04575696836524, 10.996939761289047], [78.04575604057624, 10.996849449754846], [78.0460302623031, 10.996846699652435], [78.04603304593962, 10.997117634165207], [78.04585023129634, 10.997119467635684], [78.04585115913027, 10.997209779160903], [78.04566834440612, 10.997211612541548], [78.04566927219514, 10.99730192407575], [78.04548645737219, 10.997303757366565], [78.04548460191096, 10.99712313426223], [78.0453931945489, 10.99712405085823], [78.0453913391685, 10.99694342773593]]]}, "id": "+3292+8269", "properties": {"count": 23, "water": 1}}, {"type": "Feature", "geometry": {"geodesic": false, "type": "Polygon", "coordinates": [[[78.04553778240036, 10.948800892724227], [78.04590335237117, 10.948797241934981], [78.04590242869644, 10.948706930131285], [78.04617660600162, 10.948704191778837], [78.04617568226402, 10.948613880002092], [78.04635846703832, 10.948612054311024], [78.04635754324681, 10.948521742552245], [78.04654032793128, 10.948519916771346], [78.04653940409486, 10.948429605021548], [78.04663079640116, 10.948428692090674], [78.04662987253779, 10.948338380358845], [78.04681265706955, 10.948336554434215], [78.04681173316126, 10.948246242711368], [78.04717730201816, 10.94824259058363], [78.04717822603425, 10.948332902279528], [78.04708683379981, 10.948333815354133], [78.04708775779793, 10.948424127059013], [78.04763611121354, 10.948418648117315], [78.04763703538234, 10.948508959768297], [78.04727146636374, 10.948512612542821], [78.04727239042474, 10.948602924220753], [78.04708960581213, 10.948604750459792], [78.04709052983719, 10.948695062164672], [78.04672496039639, 10.948698714337326], [78.04672588431366, 10.948789026069155], [78.0463603146393, 10.948792677837567], [78.04636123845775, 10.948882989596347], [78.04553870596727, 10.94889120454589], [78.04553778240036, 10.948800892724227]]]}, "id": "+3310+8807", "properties": {"count": 59, "water": 1}}, {"type": "Feature", "geometry": {"geodesic": false, "type": "Polygon", "coordinates": [[[78.04844399751771, 11.000435306725224], [78.04853540564335, 11.000434388952431], [78.04853447671348, 11.000344077678742], [78.0487172928839, 11.000342242052307], [78.04871636390013, 11.000251930796583], [78.04880777194492, 11.000251012951926], [78.04880684294318, 11.000160701705186], [78.04917247494267, 11.000157030084006], [78.04917433317071, 11.000337652514604], [78.04908292513491, 11.000338570485027], [78.04908385423546, 11.000428881704817], [78.04880962997534, 11.000431635454389], [78.04881055900402, 11.000521946701129], [78.04862774273478, 11.000523782408411], [78.04862867170957, 11.000614093673118], [78.04844585535949, 11.00061592929057], [78.04844399751771, 11.000435306725224]]]}, "id": "+3326+8232", "properties": {"count": 21, "water": 1}}, {"type": "Feature", "geometry": {"geodesic": false, "type": "Polygon", "coordinates": [[[78.04938083819366, 10.913447048999695], [78.04947221954949, 10.913446138107997], [78.04947129785106, 10.913355826394133], [78.05001958564473, 10.913350360513938], [78.05002050750487, 10.913440672173904], [78.05011188879782, 10.913439761084575], [78.05011465450397, 10.913710696037521], [78.05002327312118, 10.913711607144815], [78.05002419500825, 10.91380191880478], [78.04993281359852, 10.913802829894108], [78.04993373546763, 10.913893141554073], [78.04975097255831, 10.913894963660862], [78.04975005074311, 10.91380465198293], [78.04947590639712, 10.913807384918536], [78.04947498467173, 10.913717073222639], [78.04938360323504, 10.913717984132303], [78.04938083819366, 10.913447048999695]]]}, "id": "+3345+9193", "properties": {"count": 38, "water": 1}}, {"type": "Feature", "geometry": {"geodesic": false, "type": "MultiPolygon", "coordinates": [[[[78.0531527085733, 10.942673283972704], [78.05315455927347, 10.942853906421268], [78.05333733932262, 10.942852077496266], [78.05333826474008, 10.942942388707072], [78.05324687468855, 10.94294330318305], [78.05324780007905, 10.943033614393856], [78.05315641000057, 10.94303452886085], [78.05315733537311, 10.94312484008064], [78.05297455512633, 10.943126668933777], [78.05297548045395, 10.943216980171535], [78.05288409028563, 10.943217894566661], [78.0528850155953, 10.943308205804419], [78.0527022351868, 10.943310034531793], [78.05270130994003, 10.943219723267086], [78.05279270011732, 10.94321880893484], [78.0527917748436, 10.943128497679117], [78.05288316498496, 10.943127583319923], [78.05288131441056, 10.942946960835425], [78.0527899243231, 10.942947875176655], [78.05278899906733, 10.942857563929914], [78.05297177918837, 10.94285573522949], [78.05297085388769, 10.942765423991734], [78.05306224391227, 10.942764509605588], [78.05306131859363, 10.942674198376816], [78.0531527085733, 10.942673283972704]]], [[[78.0531527085733, 10.942673283972704], [78.05315178323669, 10.942582972752914], [78.0532431731894, 10.942582058330837], [78.05324224783483, 10.942491747111045], [78.05342502765043, 10.942489918204009], [78.05342410224196, 10.942399607002185], [78.05378966166654, 10.942395948882686], [78.05378873615926, 10.942305637707811], [78.05406290555926, 10.942302893857674], [78.05406197998012, 10.942212582709749], [78.05479309779624, 10.942205264629203], [78.05479217200148, 10.94211495354416], [78.05488356166674, 10.942114038672925], [78.05488448748844, 10.942204349748986], [78.05552421509132, 10.942197944805924], [78.05552328908098, 10.942107633783763], [78.0558888474186, 10.942103973247795], [78.05588977354573, 10.942194284243007], [78.05598116313912, 10.942193369030413], [78.05598023698505, 10.942103058044184], [78.05616301609098, 10.942101227565097], [78.05616394229895, 10.942191538533358], [78.05662089005929, 10.942186961805632], [78.056621816411, 10.942277272728978], [78.05671320596845, 10.942276357300788], [78.0567122795898, 10.942186046377442], [78.05680366911133, 10.9421851309223], [78.05680459551692, 10.942275441836665], [78.05689598505641, 10.942274526345592], [78.05689876440798, 10.942545459061733], [78.05534513972134, 10.942561019086197], [78.05534328775455, 10.942380397005941], [78.05506911861505, 10.942383142023887], [78.05506819272149, 10.942292830965794], [78.05433707487843, 10.94230014975601], [78.0543380005564, 10.942390460885969], [78.05397244132944, 10.94239411966124], [78.05397336689062, 10.942484430809165], [78.05369919731095, 10.942487174632351], [78.05370012280027, 10.942577485807226], [78.0534259530589, 10.942580229405834], [78.05342687847636, 10.942670540598675], [78.0531527085733, 10.942673283972704]]]]}, "id": "+3409+8874", "properties": {"count": 130, "water": 1}}, {"type": "Feature", "geometry": {"geodesic": false, "type": "MultiPolygon", "coordinates": [[[[78.06764802043199, 10.947947064591142], [78.0676489506195, 10.948037374553293], [78.06774034099443, 10.948036455334211], [78.0677431317007, 10.94830738519371], [78.06765174124492, 10.948308304430755], [78.06765081103046, 10.948217994468607], [78.06755942059264, 10.948218913669722], [78.06755849040513, 10.948128603707572], [78.06737570956545, 10.948130442010987], [78.06737384934316, 10.947949822041773], [78.06728245895924, 10.94795074113509], [78.06728152888851, 10.947860431137007], [78.06719013852258, 10.947861350203375], [78.06718920848778, 10.94777104019631], [78.06709781814878, 10.947771959226744], [78.06709688814992, 10.947681649210697], [78.0670054978289, 10.947682568205199], [78.06700456785698, 10.94759225818915], [78.06718734843615, 10.947590420191164], [78.06718827846197, 10.947680730198227], [78.06727966876502, 10.947679811149827], [78.06728059881779, 10.94777012114791], [78.06737198914779, 10.947769202063576], [78.06737291923649, 10.947859512052673], [78.06755569991448, 10.947857673794175], [78.06755663007503, 10.947947983765308], [78.06764802043199, 10.947947064591142]]], [[[78.06764802043199, 10.947947064591142], [78.06764709024448, 10.947856754628994], [78.06773848056551, 10.947855835427879], [78.06773568997603, 10.947584905559397], [78.06782708020722, 10.947583986358284], [78.06782801042168, 10.94767429631145], [78.06791940067085, 10.947673377074402], [78.06792312171733, 10.948034616833167], [78.06783173136037, 10.948035536097164], [78.06783080110998, 10.947945226152981], [78.06764802043199, 10.947947064591142]]]]}, "id": "+3536+8812", "properties": {"count": 28, "water": 1}}, {"type": "Feature", "geometry": {"geodesic": false, "type": "MultiPolygon", "coordinates": [[[[78.0721624741042, 10.951424064685572], [78.07243664715136, 10.95142130206963], [78.07243757909059, 10.95151161160957], [78.07271175214674, 10.951508848724133], [78.07271268418478, 10.951599158228142], [78.07289546623718, 10.951597316151803], [78.07289639833812, 10.951687625646828], [78.07243944300498, 10.951692230671485], [78.07243851104778, 10.951601921140528], [78.07234711998116, 10.951602842057424], [78.0723461880599, 10.9515125325085], [78.07216340596257, 10.951514374243478], [78.0721624741042, 10.951424064685572]]], [[[78.0721624741042, 10.951424064685572], [78.07188830097618, 10.951426827058969], [78.07188736920764, 10.951336517474113], [78.07170458713726, 10.951338358903664], [78.0717036554316, 10.951248049309823], [78.07152087338818, 10.951249890613612], [78.0715199417454, 10.951159581001805], [78.07142855074166, 10.951160501604292], [78.07142761912583, 10.95107019197452], [78.07124483714529, 10.95107203308966], [78.07124390560132, 10.950981723450905], [78.07106112363874, 10.950983564431299], [78.07106019215766, 10.950893254774577], [78.07087741022202, 10.95089509563819], [78.07087647880383, 10.950804785963502], [78.07069369688617, 10.95080662670135], [78.07069276553085, 10.950716317017678], [78.07050998364014, 10.950718157629764], [78.0705090523477, 10.950627847919142], [78.07032627048395, 10.950629688405462], [78.07032533925438, 10.950539378685859], [78.07014255740859, 10.950541219046414], [78.07014162624192, 10.950450909317828], [78.07005023533699, 10.950451829444207], [78.07004930420625, 10.950361519706636], [78.06995791331929, 10.950362439797082], [78.06995698222447, 10.95027213005053], [78.0697742004775, 10.950273970141591], [78.06977326944556, 10.950183660377071], [78.06968187858556, 10.950184580377687], [78.06968001661153, 10.950003960821698], [78.06949723498133, 10.950005800706148], [78.06949537314206, 10.949825181123208], [78.06940398237188, 10.949826101007043], [78.06940305149266, 10.94973579120659], [78.06922026997924, 10.949737630875443], [78.06921933916291, 10.949647321057025], [78.06912794841968, 10.949648240851028], [78.06912608686787, 10.949467621196224], [78.06903469617853, 10.949468540945311], [78.06903376544305, 10.949378231108925], [78.06885098408235, 10.949380070499302], [78.06885005340975, 10.94928976064495], [78.06875866274736, 10.949290680295222], [78.0687577321107, 10.94920037044087], [78.06866634146627, 10.949201290046227], [78.06866541086553, 10.949110980182892], [78.06848262961263, 10.949112819312758], [78.06848169907478, 10.949022509422473], [78.06839030845731, 10.949023428946981], [78.06838937795538, 10.948933119047714], [78.06829798736487, 10.948934038527307], [78.06829612644188, 10.948753418728773], [78.06820473589627, 10.948754338163448], [78.06820380547519, 10.948664028255198], [78.06811241494756, 10.948664947662925], [78.06811148455344, 10.948574637736709], [78.06802009405274, 10.948575557108503], [78.06801916370354, 10.948485247182287], [78.06792777321184, 10.94848616651815], [78.06792684289856, 10.94839585658295], [78.06801823335434, 10.94839493725607], [78.0680173030231, 10.948304627320871], [78.06829147427364, 10.948301869205487], [78.06829240468572, 10.948392179113737], [78.06838379511454, 10.948391259679061], [78.06838472557155, 10.948481569578329], [78.06847611601833, 10.948480650107719], [78.0684770465023, 10.948570959998003], [78.0687512178786, 10.94856820139753], [78.06875214846136, 10.948658511260865], [78.0688435389351, 10.948657591673474], [78.06884446954481, 10.948747901527826], [78.06893586003652, 10.94874698189552], [78.06893679069115, 10.948837291740888], [78.06902818119185, 10.948836372081633], [78.06902911188241, 10.948926681918017], [78.06912050241006, 10.94892576222283], [78.06912143313656, 10.949016072050231], [78.06921282368215, 10.949015152319111], [78.06921375443561, 10.94910546213753], [78.06930514500816, 10.949104542370478], [78.06930607579754, 10.949194852179913], [78.06939746638807, 10.949193932376927], [78.06939839721338, 10.949284242186362], [78.06958117842136, 10.949282402481575], [78.06958304021572, 10.94946302205553], [78.06967443086015, 10.949462102144748], [78.06967629274433, 10.94964272170972], [78.06976768343367, 10.949641801754021], [78.06976861442068, 10.949732111527524], [78.06986000512798, 10.949731191535891], [78.06986093614194, 10.949821501300411], [78.06995232687619, 10.94982058128183], [78.06995325792609, 10.949910891037366], [78.0700446486783, 10.94990997097387], [78.07004557977311, 10.950000280720422], [78.0703197520567, 10.949997520359252], [78.07032068323237, 10.950087830087838], [78.07050346477274, 10.950085989691349], [78.07050439601127, 10.95017629940197], [78.07086995910099, 10.95017261825865], [78.07087275321187, 10.950443547282715], [78.07096414404494, 10.950442626904808], [78.07096507546314, 10.950532936570513], [78.07105646631416, 10.950532016156671], [78.07105739775932, 10.950622325813393], [78.07133157035733, 10.95061956439221], [78.0713325019013, 10.950709874021983], [78.07142389277928, 10.950708953482378], [78.07142482435019, 10.95079926311215], [78.07151621524613, 10.950798342536615], [78.07151714686196, 10.950888652157404], [78.07169992868081, 10.950886810907516], [78.07170086035953, 10.950977120510338], [78.07179225128243, 10.95097619984497], [78.07179318299707, 10.951066509429827], [78.07188457394692, 10.951065588728525], [78.07188550568851, 10.951155898313383], [78.07197689665632, 10.951154977576149], [78.07197782843386, 10.951245287152021], [78.07206921941963, 10.951244366369872], [78.07207015124207, 10.951334675936764], [78.07216154224582, 10.951333755127665], [78.0721624741042, 10.951424064685572]]]]}, "id": "+3541+8804", "properties": {"count": 250, "water": 1}}, {"type": "Feature", "geometry": {"geodesic": false, "type": "Polygon", "coordinates": [[[78.07663502557251, 10.95083705613447], [78.07690919692187, 10.950834289646787], [78.07691013017264, 10.950924598809436], [78.07709291108418, 10.950922754325614], [78.07709384439784, 10.951013063470295], [78.07791635836504, 10.951004761905192], [78.07791729193022, 10.951095070969027], [78.0782828535916, 10.951091380644923], [78.07828378728254, 10.951181689681809], [78.07846656811324, 10.951179844344585], [78.07846750186707, 10.951270153363502], [78.0789244539483, 10.95126553949044], [78.07892538784586, 10.951355848473424], [78.07919955908741, 10.951353079793854], [78.0792004930748, 10.951443388758873], [78.07965744510213, 10.951438773709016], [78.07965837924223, 10.95152908262912], [78.08002394083175, 10.951525390077196], [78.08002487508864, 10.951615698961366], [78.08048182702615, 10.951611082617935], [78.08048276142675, 10.95170139145719], [78.08057415181965, 10.95170046810586], [78.08057508625619, 10.951790776936132], [78.08094064784571, 10.95178708319843], [78.08094158239903, 10.951877392001753], [78.08112436320279, 10.951875544957732], [78.08112529781899, 10.951965853743086], [78.08130807864968, 10.9519640065733], [78.08130901332878, 10.952054315349674], [78.0814004037576, 10.952053391710882], [78.08140133847262, 10.952143700478272], [78.08076160511152, 10.952150165410826], [78.08076067058515, 10.952059856589537], [78.08002954647185, 10.95206724338222], [78.08002861217904, 10.951976934498049], [78.07957165947796, 10.951981550320458], [78.07957072532888, 10.951891241400354], [78.07938794425564, 10.95189308751911], [78.07938701016944, 10.95180277858104], [78.07911283856856, 10.95180554753909], [78.07911190457219, 10.95171523857407], [78.07883773298029, 10.951718007262624], [78.07883679908274, 10.951627698270656], [78.07837984639964, 10.951632312161685], [78.07837891264582, 10.951542003142768], [78.07819613157257, 10.951543848488974], [78.07819519788163, 10.951453539443106], [78.07801241682635, 10.951455384672531], [78.0780114831983, 10.951365075608697], [78.07764592110571, 10.95136876570822], [78.07764685462597, 10.951459074790021], [78.07728129229982, 10.951462764485305], [78.07728035888736, 10.951372455358587], [78.07737174945991, 10.951371532986421], [78.07736988260804, 10.951190914759938], [78.07718710157971, 10.95119275944139], [78.07718616822115, 10.951102450314675], [78.07691199669213, 10.951105217116767], [78.07691106343239, 10.951014907963101], [78.07672828242202, 10.95101675234811], [78.07672734922515, 10.95092644317648], [78.07663595873345, 10.950927365315085], [78.07663502557251, 10.95083705613447]]]}, "id": "+3635+8775", "properties": {"count": 199, "water": 1}}, {"type": "Feature", "geometry": {"geodesic": false, "type": "Polygon", "coordinates": [[[78.09037496647686, 11.015184715245688], [78.09046637553674, 11.015183783629857], [78.09046543254823, 11.01509347601231], [78.09064825059613, 11.015091612699798], [78.09064447848043, 11.014730382283512], [78.09055306957325, 11.014731313917311], [78.09055212659374, 11.014641006308747], [78.09064353547396, 11.014640074674949], [78.09064259247647, 11.014549767066386], [78.09073400132075, 11.014548835423605], [78.0907302292859, 11.014187605025285], [78.0914614988634, 11.014180151092518], [78.09146244208546, 11.014270458629216], [78.09155385076805, 11.014269526761856], [78.09155479402604, 11.014359834289571], [78.09173761142716, 11.014357970447053], [78.09173572482133, 11.014177355418573], [78.091827133459, 11.014176423470365], [78.09183468031351, 11.01489888351242], [78.0919260891578, 11.01489795147438], [78.09192797600616, 11.015078566457944], [78.09183656710798, 11.01507949851395], [78.09183939735807, 11.015350421016246], [78.09119953421738, 11.015356944779468], [78.09120236395545, 11.015627867434478], [78.09065390901225, 11.015633458306262], [78.09065296592492, 11.015543150706682], [78.09047014759855, 11.015545014091058], [78.0904692045741, 11.015454706473513], [78.0903777954244, 11.015455638125276], [78.09037496647686, 11.015184715245688]]]}, "id": "+3791+8072", "properties": {"count": 194, "water": 1}}, {"type": "Feature", "geometry": {"geodesic": false, "type": "Polygon", "coordinates": [[[78.09648955404053, 10.979176239385483], [78.0968551437653, 10.979172517422715], [78.09685420198952, 10.979082210137545], [78.09694559937131, 10.979081279581726], [78.09694465757757, 10.978990972305539], [78.09721884958816, 10.978988180512316], [78.09721979146276, 10.979078487761553], [78.09740258615446, 10.979076626407368], [78.09741012191476, 10.979799084284483], [78.09713592920347, 10.979801876463982], [78.09713498729295, 10.979711569205762], [78.09695219216107, 10.979713430497064], [78.09695313402668, 10.979803737773251], [78.09677033881395, 10.979805598974721], [78.09677128062567, 10.979895906259891], [78.09658848532311, 10.979897767371531], [78.09658189318911, 10.979265616240596], [78.0964904957175, 10.979266546697602], [78.09648955404053, 10.979176239385483]], [[78.0967656298632, 10.979354062530907], [78.0968570273438, 10.979353131984071], [78.09685796913755, 10.979443439269241], [78.09676657163898, 10.97944436982506], [78.0967656298632, 10.979354062530907]]]}, "id": "+3854+8461", "properties": {"count": 72, "water": 1}}, {"type": "Feature", "geometry": {"geodesic": false, "type": "MultiPolygon", "coordinates": [[[[78.09775599415804, 10.96913817708357], [78.09793878264237, 10.969136317076858], [78.09793972387018, 10.969226624326096], [78.09803111812583, 10.969225694273332], [78.09803205939855, 10.969316001513587], [78.09821484794577, 10.969314141309246], [78.09821578927239, 10.969404448531533], [78.09830718356397, 10.969403518379956], [78.09830812492653, 10.96949382559326], [78.09849091353664, 10.969491965200273], [78.09849185496206, 10.969582272395611], [78.09867464359913, 10.969580411867875], [78.09867558508745, 10.96967071905423], [78.09904116236156, 10.96966699764842], [78.09904210397563, 10.969757304798842], [78.09949907552337, 10.96975265237907], [78.09950378439326, 10.97020418793355], [78.09913820662508, 10.970207910075981], [78.09913726493913, 10.970117602934542], [78.09886308160625, 10.970120394233692], [78.09886214001912, 10.970030087065304], [78.09877074558382, 10.97003101744146], [78.09876980403261, 10.969940710264089], [78.09858701519794, 10.969942570908604], [78.09858607370961, 10.969852263722249], [78.09849467930125, 10.969853193990607], [78.09849373784887, 10.96976288679527], [78.09840234346746, 10.969763817027696], [78.09840140205101, 10.969673509823375], [78.09821861331514, 10.969675370198395], [78.09821767196156, 10.969585062976108], [78.09812627760711, 10.969585993118702], [78.09812533628947, 10.969495685887432], [78.09803394195298, 10.969496615994094], [78.09803300067126, 10.96940630875384], [78.09794160635273, 10.96940723882457], [78.09794066510698, 10.969316931575333], [78.09775787651483, 10.969318791608993], [78.09775599415804, 10.96913817708357]]], [[[78.09775599415804, 10.96913817708357], [78.09766459990239, 10.969139107046502], [78.09766365875542, 10.969048799770315], [78.09775505298413, 10.969047869816366], [78.09775599415804, 10.96913817708357]]]]}, "id": "+3861+8571", "properties": {"count": 68, "water": 1}}, {"type": "Feature", "geometry": {"geodesic": false, "type": "Polygon", "coordinates": [[[78.13574806020021, 10.931449591103679], [78.13583943957077, 10.931448652912179], [78.13583849019525, 10.931358348708232], [78.13592986952987, 10.931357410498766], [78.13593081893235, 10.931447714684747], [78.13611357762856, 10.931445838167], [78.13611642605159, 10.931716750689013], [78.13629918488253, 10.93171487400957], [78.13630108397494, 10.931895482318652], [78.13657522232918, 10.93189266705245], [78.13657427269314, 10.931802362920367], [78.13666565209964, 10.93180142445039], [78.13666470244563, 10.931711120327291], [78.1367560818162, 10.931710181839346], [78.13675418247226, 10.93152957360213], [78.13702832036834, 10.93152675802152], [78.13702357175698, 10.931075237540767], [78.13693219260202, 10.93107617605566], [78.13692934362204, 10.930805263731276], [78.13702072268717, 10.930804325243333], [78.13702262205805, 10.930984933444616], [78.13729675937923, 10.930982117756207], [78.13729960874548, 10.931253029972792], [78.13748236709134, 10.931251152673513], [78.13748521669116, 10.931522064836198], [78.13730245819258, 10.93152394218938], [78.13730340801726, 10.93161424625858], [78.13721202872755, 10.93161518490822], [78.13721297853427, 10.931705488986404], [78.13712159920861, 10.931706427609095], [78.13712254899737, 10.931796731696261], [78.13693979026522, 10.931798608878761], [78.13694074000905, 10.931888912983895], [78.13675798118709, 10.93189079006758], [78.13675893087702, 10.93198109419068], [78.1366675514256, 10.93198203269659], [78.13666850110656, 10.93207233681969], [78.13657712161921, 10.932073275316617], [78.1365780712822, 10.9321635794487], [78.13648669174995, 10.932164517918677], [78.13648859103998, 10.932345126191825], [78.13639721145383, 10.932346064661802], [78.13639816108088, 10.932436368802868], [78.13621540182771, 10.932438245661976], [78.13621635140986, 10.932528549821008], [78.13603359206685, 10.932530426590283], [78.13603169301936, 10.932349818236284], [78.13594031338829, 10.932350756562531], [78.13593841443063, 10.932170148190568], [78.13584703485346, 10.932171086480883], [78.1358441865562, 10.931900173895988], [78.13575280705089, 10.93190111212342], [78.13574995891533, 10.931630199511575], [78.13584133833979, 10.93162926130211], [78.1358403889463, 10.931538957107144], [78.13574900954879, 10.931539895307628], [78.13574806020021, 10.931449591103679]]]}, "id": "+4295+8990", "properties": {"count": 116, "water": 1}}]}