{"type": "FeatureCollection", "columns": {"count": "Long<0, 4294967295>", "system:index": "String", "water": "Byte<0, 1>"}, "features": [{"type": "Feature", "geometry": {"geodesic": false, "type": "Polygon", "coordinates": [[[79.15611746794335, 12.98047883207091], [79.15612146643451, 12.97993655088035], [79.1562136267375, 12.979937204395736], [79.1562142930988, 12.979846824185332], [79.15612213283174, 12.979846170678927], [79.15612546474601, 12.979394269662839], [79.15630978495673, 12.979395576594797], [79.15630578704048, 12.97993785787519], [79.15639794736144, 12.979938511318709], [79.15639528211389, 12.98030003216931], [79.1564874425696, 12.980300685603847], [79.15648677628016, 12.980391065823236], [79.15657893676281, 12.980391719230823], [79.15657693796639, 12.980662859888985], [79.15648477737594, 12.980662206472415], [79.15648544368334, 12.980571826253026], [79.15639328312882, 12.980571172809507], [79.15639394946317, 12.980480792599101], [79.15611746794335, 12.98047883207091]]]}, "id": "+1+6441", "properties": {"count": 35, "water": 1}}, {"type": "Feature", "geometry": {"geodesic": false, "type": "Polygon", "coordinates": [[[79.16710305718101, 12.851666316600202], [79.16710633542992, 12.851214408370641], [79.16729056285365, 12.851215694919825], [79.1672912184172, 12.851125313263132], [79.16738333210661, 12.851125956483825], [79.16738267657001, 12.8512163381495], [79.16756690401171, 12.851217624510037], [79.167566248538, 12.851308006184695], [79.16784258984876, 12.851309935496431], [79.16784193446489, 12.851400317180072], [79.1677498206587, 12.85139967410311], [79.16774916523887, 12.851490055786751], [79.16765705140574, 12.851489412673857], [79.16765574048526, 12.85167017601419], [79.16737939881517, 12.851668246459909], [79.16737874324264, 12.8517586281166], [79.16719451542365, 12.851757341567417], [79.16719517105906, 12.851666959919708], [79.16710305718101, 12.851666316600202]]]}, "id": "+111+7861", "properties": {"count": 35, "water": 1}}, {"type": "Feature", "geometry": {"geodesic": false, "type": "Polygon", "coordinates": [[[79.16945934670525, 12.882414083353432], [79.16946262884387, 12.881962175573028], [79.16955475389696, 12.881962819548306], [79.169555410269, 12.88187243799043], [79.16973966032128, 12.881873725833186], [79.16973834768503, 12.882054488975891], [79.16983047278303, 12.882055132861337], [79.16982981649186, 12.882145514428197], [79.16973769136689, 12.882144870542751], [79.1697370350308, 12.882235252109611], [79.16982916020068, 12.88223589600404], [79.16982784759136, 12.882416659155728], [79.16964359714382, 12.88241537131297], [79.1696429407628, 12.882505752879831], [79.16955081551208, 12.882505108904553], [79.16955147192004, 12.882414727346676], [79.16945934670525, 12.882414083353432]]]}, "id": "+139+7521", "properties": {"count": 21, "water": 1}}, {"type": "Feature", "geometry": {"geodesic": false, "type": "Polygon", "coordinates": [[[79.17226840569188, 12.990083356376411], [79.17227105006258, 12.98972183256137], [79.17236321480324, 12.989722480830595], [79.17236387584651, 12.989632099874589], [79.17245604056922, 12.989632748107882], [79.17245670157655, 12.989542367142892], [79.17254886626331, 12.989543015340251], [79.17254622234177, 12.989904539209192], [79.17263838717227, 12.989905187388585], [79.17263640427602, 12.990176330301518], [79.17272856920533, 12.99017697847193], [79.17272592540955, 12.990538502358834], [79.1728180904826, 12.990539150511278], [79.17281676862063, 12.990719912459223], [79.17272460348472, 12.99071926430678], [79.17272328153292, 12.990900026245741], [79.17281544674071, 12.990900674407168], [79.17281478578728, 12.99099105538114], [79.17290695103101, 12.990991703524601], [79.1729062901135, 12.991082084498574], [79.1725376290398, 12.9910794917271], [79.17253829009205, 12.990989110771094], [79.1724461248663, 12.990988462501871], [79.17245075233984, 12.990355795800845], [79.17235858734766, 12.99035514753162], [79.17236057057627, 12.990084004663602], [79.17226840569188, 12.990083356376411]]]}, "id": "+178+6330", "properties": {"count": 56, "water": 1}}, {"type": "Feature", "geometry": {"geodesic": false, "type": "Polygon", "coordinates": [[[79.17262516701658, 12.991712806697352], [79.17262582807781, 12.991622425741346], [79.17271799353712, 12.991623073974637], [79.17271865455345, 12.991532693009649], [79.17299515088648, 12.991534637511895], [79.172995811795, 12.991444256537923], [79.17308797721839, 12.991444904636468], [79.17308863809097, 12.99135452364453], [79.17318080347843, 12.991355171707141], [79.17318014264177, 12.99144555269908], [79.17327230806517, 12.99144620072576], [79.17327164725545, 12.991536581717698], [79.17336381272375, 12.991537229726411], [79.173363151941, 12.99162761071835], [79.17363964847166, 12.991629554546861], [79.17363832708581, 12.991810316575654], [79.17373049267988, 12.991810964458603], [79.1737298320139, 12.99190134546851], [79.17354550077188, 12.991900049657694], [79.17354484004302, 12.991990430658616], [79.17345267439505, 12.991989782694818], [79.17345135283853, 12.992170544696663], [79.17354351854937, 12.992171192669442], [79.17354285779356, 12.992261573670364], [79.17409585236406, 12.992265460833313], [79.17409387068055, 12.992536603916927], [79.17390953893546, 12.992535308303742], [79.17390821765741, 12.992716070332534], [79.17372388579554, 12.992714774566636], [79.17372322508466, 12.99280515557654], [79.17344672723347, 12.992803211658199], [79.17344606641477, 12.992893592650137], [79.17316956851866, 12.992891648435352], [79.17317022943617, 12.992801267452396], [79.17307806350973, 12.992800619317919], [79.17308004634309, 12.992529476396001], [79.17298788052445, 12.992528828243557], [79.17298920244929, 12.992348066295612], [79.17308136820505, 12.992348714439073], [79.17308269004904, 12.992167952482145], [79.17317485574192, 12.992168600589673], [79.17317617749607, 12.99198783861478], [79.17299184625405, 12.991986542399724], [79.17299250718952, 12.991896161425752], [79.17280817602834, 12.99189486508493], [79.1728088370267, 12.991804484119942], [79.17271667149551, 12.991803835904616], [79.1727173325208, 12.991713454939626], [79.17262516701658, 12.991712806697352]]]}, "id": "+185+6310", "properties": {"count": 122, "water": 1}}, {"type": "Feature", "geometry": {"geodesic": false, "type": "MultiPolygon", "coordinates": [[[[79.17469986801775, 12.972655995272122], [79.1747005273183, 12.97256561407357], [79.17451621023372, 12.972564320840922], [79.17451423210753, 12.972835464400642], [79.17460639074864, 12.972836111043916], [79.17460507203975, 12.973016873423052], [79.17423643724177, 12.973014286598428], [79.1742357777526, 12.973104667770029], [79.17405146031767, 12.973103374151105], [79.17405080074764, 12.973193755313723], [79.17395864200772, 12.973193108454852], [79.17395468430905, 12.973735395367683], [79.1738625253715, 12.97373474844593], [79.17386054635598, 12.974005891879887], [79.17376838732861, 12.974005244913219], [79.17376904703339, 12.973914863768567], [79.17367688804194, 12.97391421677495], [79.17367622830123, 12.97400459791062], [79.17339975124604, 12.974002656705188], [79.17340107092508, 12.9738218944608], [79.17349322987161, 12.973822541553233], [79.17349586904108, 12.973461017046489], [79.1734037102293, 12.973460369972022], [79.17340437004187, 12.973369988845336], [79.17322005249915, 12.973368694615559], [79.17321807284581, 12.973639837959682], [79.17312591398013, 12.97363919077742], [79.17312459412142, 12.973819952994859], [79.17303243519285, 12.973819305776663], [79.17303309515815, 12.973728924676927], [79.17294093626552, 12.973728277422799], [79.17294225625, 12.973547515223325], [79.1728500974382, 12.97354686795123], [79.1728514174676, 12.973366105760741], [79.1727592587187, 12.973365458461696], [79.17275991876484, 12.973275077370943], [79.17285207746882, 12.973275724661004], [79.17285273747903, 12.973185343561267], [79.17303705485106, 12.973186638033592], [79.17303771478042, 12.973096256924872], [79.17294555612135, 12.97309560971566], [79.17294621607766, 12.97300522860694], [79.17285405746351, 12.973004581361794], [79.172855377439, 12.972823819162322], [79.17276321888772, 12.97282317189921], [79.17276453890814, 12.972642409699738], [79.17304101435535, 12.972644351381275], [79.17303969454154, 12.972825113598713], [79.1729475359813, 12.972824466398484], [79.17294687603398, 12.972914847507203], [79.17313119321736, 12.972916141880713], [79.17313053333292, 12.973006522998416], [79.17340700923828, 12.973008464338593], [79.17340832880953, 12.97282770208522], [79.17350048739674, 12.972828349123754], [79.17350180687815, 12.972647586852416], [79.17368612391782, 12.9726488808127], [79.17368810291538, 12.972377737378745], [79.17378026134088, 12.972378384291513], [79.17378224018572, 12.97210724083959], [79.17369008185902, 12.972106593935804], [79.17368942220814, 12.972196975080456], [79.1735972638545, 12.972196328140738], [79.17359660417668, 12.97228670928539], [79.1734122874065, 12.972285415298156], [79.1734116276568, 12.972375796424842], [79.17350378606436, 12.972376443445409], [79.17350312634161, 12.972466824581078], [79.17322665101118, 12.972464883420564], [79.17322731084172, 12.972374502293878], [79.17295083565503, 12.97237256086387], [79.17295017573466, 12.972462941972589], [79.1727658589016, 12.972461647500264], [79.17276651889384, 12.972371266400527], [79.17285867727443, 12.972371913645674], [79.17286197698411, 12.97192000812004], [79.172954135203, 12.971920655302304], [79.17295479509642, 12.971830274193584], [79.17323126968125, 12.971832215542745], [79.17323060988664, 12.971922596669431], [79.1733227681235, 12.971923243734913], [79.17332342788218, 12.971832862599245], [79.17341558609209, 12.971833509619811], [79.17341624581483, 12.971743128484142], [79.1735084039978, 12.971743775468775], [79.17350906368462, 12.971653394324123], [79.17360122184063, 12.971654041272824], [79.17360188148253, 12.97156366011919], [79.17369403961159, 12.971564307031958], [79.17369469921755, 12.971473925878323], [79.17341822495612, 12.97147198506815], [79.17341756525134, 12.97156236620382], [79.17332540714024, 12.97156171920122], [79.17332672661269, 12.971380956929883], [79.17314241054319, 12.97137966283485], [79.17314307033782, 12.971289281717148], [79.17305091234348, 12.971288634624715], [79.1730522319956, 12.971107872380326], [79.17314438991805, 12.971108519454793], [79.17314504970368, 12.971018138328107], [79.17342152342611, 12.971020079362857], [79.17342218310394, 12.970929698218205], [79.17388297256349, 12.970932932602384], [79.17388231304736, 12.971023313765004], [79.17425094484497, 12.97102590070641], [79.17425028546359, 12.971116281886994], [79.1743424434579, 12.971116928539251], [79.17434112474005, 12.971297690918387], [79.17424896667387, 12.971297044248164], [79.17424764787516, 12.971477806618317], [79.17433980600423, 12.97147845328854], [79.17433782786007, 12.97174959684826], [79.17442998608796, 12.971750243500518], [79.17443064544238, 12.97165986231095], [79.17452280364331, 12.971660508936258], [79.17452346296182, 12.971570127737706], [79.1746156211358, 12.971570774327082], [79.17461430257066, 12.971751536724184], [79.17498293558998, 12.971754122758291], [79.17498227642419, 12.97184450397481], [79.17525875134139, 12.971846443176997], [79.17525743320745, 12.97202720563698], [79.17507311646422, 12.97202591285349], [79.17507245732538, 12.972116294070007], [79.17498029892683, 12.972115647624362], [79.17498161726739, 12.971934885191327], [79.174797300614, 12.97193359221919], [79.17479795984266, 12.971843211011654], [79.17470580156089, 12.971842564485161], [79.17470514229629, 12.971932945683713], [79.17461298398756, 12.971932299112304], [79.17461100606798, 12.972203442698975], [79.17470316447552, 12.972204089279366], [79.17470118661883, 12.97247523287502], [79.17497766218281, 12.972477172472464], [79.17497700299008, 12.97256755368], [79.17488484442084, 12.972566907180456], [79.17488418519217, 12.97265728838799], [79.17469986801775, 12.972655995272122]]], [[[79.17469986801775, 12.972655995272122], [79.17469920870823, 12.972746376470672], [79.17460705009408, 12.972745729854347], [79.17460770943953, 12.97265534866478], [79.17469986801775, 12.972655995272122]]]]}, "id": "+191+6536", "properties": {"count": 427, "water": 1}}, {"type": "Feature", "geometry": {"geodesic": false, "type": "MultiPolygon", "coordinates": [[[[79.17564286937585, 12.994987901053262], [79.17564352951182, 12.99489751996251], [79.17555136268706, 12.994896872600583], [79.17555202284998, 12.994806491518814], [79.17518335573959, 12.994803901774663], [79.17518269544193, 12.994894282838468], [79.17499836184632, 12.994892987764272], [79.17499770147678, 12.994983368819092], [79.17472120102946, 12.994981425942797], [79.1747218614978, 12.994891044896958], [79.17462969471796, 12.99489039721164], [79.17463035521327, 12.994800016174784], [79.17472252195716, 12.994800663851121], [79.17472318241653, 12.994710282814266], [79.17518401602828, 12.994713520701877], [79.17518665714708, 12.994351996428694], [79.17537099036541, 12.994353291323227], [79.17537627183046, 12.993630242669067], [79.17556060452776, 12.993631537356986], [79.17555862421865, 12.993902680629246], [79.1756507906751, 12.993903327937273], [79.17565013059304, 12.99399370903701], [79.1757422970944, 12.993994356318089], [79.17574097698416, 12.99417511851756], [79.17564881041991, 12.9941744712275], [79.17564749021983, 12.99435523341799], [79.1755553236017, 12.994354586083013], [79.17555400331179, 12.994535348255535], [79.1756461700018, 12.994535995599497], [79.17564550989277, 12.994626376690249], [79.17573767661872, 12.99462702400726], [79.17573569634555, 12.994898167288504], [79.1758278631793, 12.994898814587547], [79.17582720310621, 12.994989195687284], [79.17564286937585, 12.994987901053262]]], [[[79.17564286937585, 12.994987901053262], [79.17564220923988, 12.995078282144016], [79.17545787545562, 12.995076987366264], [79.17545853566345, 12.994986606293478], [79.17564286937585, 12.994987901053262]]]]}, "id": "+211+6285", "properties": {"count": 68, "water": 1}}, {"type": "Feature", "geometry": {"geodesic": false, "type": "Polygon", "coordinates": [[[79.17573385621856, 12.931899163798418], [79.17573648334161, 12.931537637674706], [79.17582862686407, 12.93153828186558], [79.17582994032678, 12.931357518785758], [79.1757377968672, 12.931356874603868], [79.17573911038382, 12.931176111533029], [79.17610768397957, 12.931178688044994], [79.17610702735601, 12.931269069602871], [79.17619917080661, 12.931269713650014], [79.17619654440222, 12.93163123987254], [79.17628868798755, 12.9316318839107], [79.17628803140892, 12.931722265468578], [79.17638017503019, 12.931722909479788], [79.1763788619268, 12.931903672604525], [79.17628671823367, 12.931903028593315], [79.17628540504045, 12.93208379170907], [79.17591683007925, 12.932081215268969], [79.1759174868106, 12.931990833729058], [79.17582534311747, 12.931990189547168], [79.17582599987577, 12.931899808007257], [79.17573385621856, 12.931899163798418]]]}, "id": "+212+6976", "properties": {"count": 51, "water": 1}}, {"type": "Feature", "geometry": {"geodesic": false, "type": "Polygon", "coordinates": [[[79.17613749343141, 12.876224016653616], [79.17613945457046, 12.875952870848106], [79.17650794738971, 12.8759554359874], [79.17650729381144, 12.876045817940536], [79.1765994170679, 12.876046459157985], [79.1765987635166, 12.876136841111121], [79.17669088680898, 12.87613748229264], [79.1766889262269, 12.876408628178996], [79.17678104961811, 12.876409269342547], [79.17678039612069, 12.876499651304666], [79.17687251954784, 12.876500292441268], [79.17687055910947, 12.87677143834559], [79.17677843558351, 12.876770797200006], [79.17677778205915, 12.876861179162127], [79.17659353495333, 12.876859896754176], [79.17659418854058, 12.87676951480104], [79.1765020650236, 12.87676887355664], [79.176503372252, 12.876588109659352], [79.17641124880689, 12.876587468388003], [79.17641255608021, 12.876406704499697], [79.17632043270696, 12.876406063201399], [79.17632108637507, 12.876315681257246], [79.17622896303774, 12.876315039940982], [79.17622961672382, 12.876224658005812], [79.17613749343141, 12.876224016653616]]]}, "id": "+212+7587", "properties": {"count": 43, "water": 1}}, {"type": "Feature", "geometry": {"geodesic": false, "type": "Polygon", "coordinates": [[[79.17600372004732, 12.932804911743197], [79.17600634697273, 12.932443385592537], [79.17609849084553, 12.932444029738495], [79.17609980420943, 12.93226326664969], [79.17646837947606, 12.932265842856228], [79.17646575325132, 12.932627369114687], [79.17637360929767, 12.93262672508551], [79.17637295270107, 12.932717106643388], [79.17655724068022, 12.932718394665807], [79.1765559276038, 12.932899157799529], [79.17646378354235, 12.932898513797301], [79.1764624703671, 12.933079276913055], [79.17609389390572, 12.933076700535837], [79.17609586405486, 12.932805555907121], [79.17600372004732, 12.932804911743197]]]}, "id": "+216+6964", "properties": {"count": 41, "water": 1}}, {"type": "Feature", "geometry": {"geodesic": false, "type": "Polygon", "coordinates": [[[79.17669415433203, 12.87568557247306], [79.1766954613089, 12.875504808539839], [79.17687970744454, 12.875506090741176], [79.1768803608611, 12.875415708761091], [79.17706460694285, 12.875416990818698], [79.17706395358915, 12.875507372807766], [79.17715607667495, 12.875508013800637], [79.177153463359, 12.875869541756911], [79.17706134014745, 12.875868900746074], [79.17706068677579, 12.875959282735144], [79.1769685635283, 12.875958641688372], [79.17696791012072, 12.87604902366846], [79.17678366358085, 12.876047741476103], [79.17678627746272, 12.875686213600678], [79.17669415433203, 12.87568557247306]]]}, "id": "+218+7593", "properties": {"count": 25, "water": 1}}, {"type": "Feature", "geometry": {"geodesic": false, "type": "Polygon", "coordinates": [[[79.17594243891001, 12.92855633478125], [79.1759444085022, 12.928285190089653], [79.17603655083889, 12.928285834046964], [79.1760378638165, 12.92810507090426], [79.17613000609929, 12.928105714825639], [79.17613066254319, 12.928015333249796], [79.17631494705485, 12.928016620984755], [79.17631560342687, 12.927926239399929], [79.17668417236936, 12.927928814456623], [79.17668482860665, 12.92783843285383], [79.17686911304645, 12.927839720184547], [79.1768658321475, 12.928291628252412], [79.17677368975693, 12.928290984582562], [79.17677303352862, 12.928381366185354], [79.17668089111109, 12.928380722479572], [79.17667826601824, 12.92874224888176], [79.17630969588099, 12.928739673654386], [79.17630903945506, 12.928830055239212], [79.17621689690279, 12.928829411344783], [79.17621820979956, 12.928648648193096], [79.17612606731915, 12.928648004271718], [79.17612672378999, 12.928557622704856], [79.17594243891001, 12.92855633478125]]]}, "id": "+220+7013", "properties": {"count": 71, "water": 1}}, {"type": "Feature", "geometry": {"geodesic": false, "type": "Polygon", "coordinates": [[[79.17970355167667, 12.879954671429706], [79.17970420432069, 12.879864289341823], [79.17998057876132, 12.879866210065664], [79.1799799262251, 12.87995659216253], [79.18025630080946, 12.879958512607896], [79.18025369100593, 12.880320041067225], [79.18016156600673, 12.880319400936738], [79.18016026101515, 12.880500165148437], [79.18006813595306, 12.880499524973033], [79.18006748341683, 12.880589907078882], [79.17988323323878, 12.880588626620277], [79.17988388584686, 12.880498244532394], [79.17997601089996, 12.88049888477068], [79.1799779685805, 12.880227738471097], [79.1798858436352, 12.880227098241795], [79.17988649621634, 12.880136716144927], [79.17979437130697, 12.880136075897658], [79.17979567652314, 12.879955311712909], [79.17970355167667, 12.879954671429706]]]}, "id": "+250+7544", "properties": {"count": 26, "water": 1}}, {"type": "Feature", "geometry": {"geodesic": false, "type": "Polygon", "coordinates": [[[79.17959078513496, 12.933733827158308], [79.17959275160102, 12.933462682017552], [79.17968489603078, 12.933463324950784], [79.1796862069243, 12.933282561511636], [79.17959406255743, 12.933281918587387], [79.1795960289606, 12.933010773437648], [79.17978031748774, 12.933012059214281], [79.1797816282645, 12.93283129576615], [79.17987377246968, 12.932831938591583], [79.17987442781762, 12.932741556863027], [79.17996657199585, 12.932742199652528], [79.17996722730787, 12.932651817914987], [79.18042794810918, 12.932655031368421], [79.18042729296783, 12.932745413132912], [79.18051943717302, 12.932746055724783], [79.18051878205863, 12.932836437489273], [79.18061092630873, 12.93283708006318], [79.18060896103744, 12.933108225365633], [79.18051681668852, 12.933107582782743], [79.18051812694425, 12.932926819253764], [79.1804259826672, 12.932926176652908], [79.1804253275079, 12.933016558408415], [79.1803331832039, 12.933015915762644], [79.18033056239601, 12.933377442775686], [79.18023841795727, 12.933376800085], [79.18023776271713, 12.933467181831523], [79.18014561825143, 12.933466539095921], [79.18014496296637, 12.933556920842443], [79.180237107459, 12.933557563578047], [79.18023645220089, 12.933647945324571], [79.17996001864212, 12.933646017000981], [79.17996067399905, 12.933555635263442], [79.17986852952438, 12.933554992429023], [79.17986787413152, 12.933645374157582], [79.17968358511929, 12.933644088380948], [79.17968292966354, 12.933734470100523], [79.17959078513496, 12.933733827158308]]]}, "id": "+259+6960", "properties": {"count": 80, "water": 1}}, {"type": "Feature", "geometry": {"geodesic": false, "type": "Polygon", "coordinates": [[[79.17958170565578, 12.985705785103605], [79.17958368031447, 12.985434641040827], [79.17967584386038, 12.98543528650731], [79.17967650202904, 12.98534490514706], [79.17986082906695, 12.985346195981208], [79.17986148717273, 12.985255814611978], [79.18013797765774, 12.985257750589213], [79.1801366616438, 12.985438513354625], [79.18022882521666, 12.98543915863246], [79.18022685125865, 12.985710302785067], [79.18013468758699, 12.98570965749825], [79.18013402956205, 12.985800038876464], [79.17967321110488, 12.985796811939318], [79.1796738693005, 12.98570643057907], [79.17958170565578, 12.985705785103605]]]}, "id": "+260+6378", "properties": {"count": 34, "water": 1}}, {"type": "Feature", "geometry": {"geodesic": false, "type": "Polygon", "coordinates": [[[79.1808654192533, 12.986618633008998], [79.18086739266333, 12.986347488775541], [79.18095955660449, 12.986348133828796], [79.18096021436891, 12.98625775241465], [79.1813288700617, 12.986260332295297], [79.1813295276824, 12.986169950854201], [79.18197467511783, 12.986174464367481], [79.18197401773071, 12.986264845835526], [79.18215834567592, 12.986266135124572], [79.18215768835168, 12.986356516601601], [79.18243418040873, 12.986358450297114], [79.18243352317432, 12.98644883179211], [79.1827100153841, 12.98645076521813], [79.18271067251071, 12.986360383714151], [79.18289500060864, 12.986361672482174], [79.18289302939948, 12.986632817030042], [79.18280086524271, 12.986632172641539], [79.18280020813407, 12.986722554145517], [79.18243155145312, 12.98671997625913], [79.18243089420075, 12.986810357745142], [79.18169358080293, 12.986805200373364], [79.18169292328106, 12.986895581823445], [79.1814164307389, 12.986893647256565], [79.18141774598028, 12.986712884383355], [79.18095692551988, 12.986709659494368], [79.18095758329328, 12.98661927808022], [79.1808654192533, 12.986618633008998]]]}, "id": "+280+6368", "properties": {"count": 117, "water": 1}}, {"type": "Feature", "geometry": {"geodesic": false, "type": "Polygon", "coordinates": [[[79.18311386789617, 12.930775633407569], [79.18311583009523, 12.930504487673925], [79.18320797362668, 12.930505129214769], [79.18320862764512, 12.930414747297565], [79.18339291464511, 12.930416030271454], [79.18339226068956, 12.93050641219764], [79.18348440422999, 12.93050705363967], [79.18348375030138, 12.930597435565856], [79.18366803746306, 12.930598718369065], [79.18366542195524, 12.930960246118726], [79.18338899082192, 12.93095832181959], [79.18338964480444, 12.930867939893403], [79.18329750113824, 12.93086729840646], [79.18329815514771, 12.930776916480273], [79.18311386789617, 12.930775633407569]]]}, "id": "+291+6985", "properties": {"count": 25, "water": 1}}, {"type": "Feature", "geometry": {"geodesic": false, "type": "Polygon", "coordinates": [[[79.18355498780834, 12.97163333788132], [79.18355958005894, 12.971000666311426], [79.18365173849344, 12.971001309666866], [79.1836523944792, 12.970910928010174], [79.1838367112853, 12.970912214613257], [79.1838360553714, 12.971002596278932], [79.18392821381488, 12.97100323954454], [79.18392886970182, 12.970912857869882], [79.18420534496038, 12.970914787433147], [79.18420665651865, 12.970734024056881], [79.18429881488129, 12.970734667169776], [79.18430012634974, 12.970553903775544], [79.18439228464948, 12.970554546852506], [79.18439162895119, 12.97064492854513], [79.18448378729585, 12.970645571595144], [79.18448116459251, 12.971007098401573], [79.18457332307192, 12.97100774143362], [79.18457266740957, 12.971098123135228], [79.1846648259339, 12.971098766140326], [79.18466417030746, 12.971189147841933], [79.18484848741899, 12.971190433762295], [79.18484783185545, 12.971280815472888], [79.18493999045164, 12.971281458388153], [79.18493933491504, 12.971371840107727], [79.18484717628291, 12.971371197192461], [79.1848465207104, 12.971461578912034], [79.18466220339225, 12.971460292964723], [79.18466154773887, 12.971550674675314], [79.18456938906183, 12.97155003165225], [79.18456873337253, 12.971640413353859], [79.18447657465956, 12.97163977028588], [79.18447395173163, 12.97200129706536], [79.18428963405417, 12.97200001081262], [79.184288322433, 12.972180774179902], [79.18410400463875, 12.97217948777445], [79.18410334875182, 12.972269869440124], [79.18391903092163, 12.972268582899925], [79.18391968687146, 12.97217820123425], [79.18364321025643, 12.972176271185896], [79.18364714646741, 12.97163398126371], [79.18355498780834, 12.97163333788132]]]}, "id": "+305+6541", "properties": {"count": 158, "water": 1}}, {"type": "Feature", "geometry": {"geodesic": false, "type": "Polygon", "coordinates": [[[79.18503280455747, 12.971191719538929], [79.18503411554083, 12.971010956090797], [79.18512627405617, 12.971011598925214], [79.18512889583424, 12.970650071984037], [79.18531321259543, 12.970651357518124], [79.18531190185462, 12.970832121002188], [79.18558837723894, 12.970834049083232], [79.18559034305821, 12.970562903807728], [79.18568250142982, 12.97056354642655], [79.18568381187418, 12.97038278289757], [79.18605244515402, 12.970385352995565], [79.18605310024145, 12.970294971204126], [79.1861452585412, 12.970295613643284], [79.1861446034897, 12.970385995434723], [79.18632892017004, 12.970387280223209], [79.18632957514967, 12.970296898422786], [79.1865138917851, 12.970298183067541], [79.18651323685935, 12.970388564876947], [79.18678971194724, 12.9703904916195], [79.18678905712031, 12.97048087343789], [79.18688121552785, 12.97048151562552], [79.18688056073687, 12.970571897452892], [79.18715703607627, 12.970573823827136], [79.1871563813751, 12.970664205663493], [79.1872485398635, 12.97066484773434], [79.18724788519827, 12.970755229570697], [79.1873400437226, 12.970755871614596], [79.18733480642771, 12.971478926359335], [79.1872426476339, 12.971478284288485], [79.18724068346752, 12.971749429788568], [79.18714852458388, 12.971748787672803], [79.18714786981982, 12.971839169500175], [79.18650275749054, 12.971834673710655], [79.18650210249294, 12.971925055502094], [79.18613346685054, 12.97192248574546], [79.18613281171818, 12.972012867518933], [79.18604065278063, 12.972012224998926], [79.18604458375442, 12.971469934349106], [79.18595242502349, 12.971469291820116], [79.18595308020076, 12.971378910046642], [79.1857687628377, 12.97137762489883], [79.18576941807785, 12.971287243134341], [79.18558510078665, 12.971285957869748], [79.1855857560897, 12.97119557611424], [79.18540143889732, 12.971194290714902], [79.18540078353139, 12.971284672461424], [79.18512430767096, 12.97128274411987], [79.18512496313569, 12.971192362382329], [79.18503280455747, 12.971191719538929]], [[79.18595832144823, 12.970655855849875], [79.18595897658058, 12.970565474076402], [79.18605113497016, 12.970566116560477], [79.18605047987374, 12.970656498342933], [79.18595832144823, 12.970655855849875]]]}, "id": "+328+6544", "properties": {"count": 294, "water": 1}}, {"type": "Feature", "geometry": {"geodesic": false, "type": "Polygon", "coordinates": [[[79.15905824618143, 12.969111148227027], [79.15906024045934, 12.968840006940043], [79.1593367095824, 12.968841962617333], [79.15933604492791, 12.968932343052316], [79.15988898350642, 12.968936253544513], [79.15988831904956, 12.969026634015428], [79.160164788505, 12.969028588839318], [79.16016412414695, 12.969118969319217], [79.16034843720708, 12.969120272379435], [79.16034777290292, 12.969210652868318], [79.16071639922978, 12.969213258620444], [79.1607157350514, 12.969303639127293], [79.16090004830916, 12.96930494181022], [79.16089938419366, 12.969395322335034], [79.16108369754124, 12.96939662490118], [79.16108303348862, 12.969487005425995], [79.16126734691706, 12.969488307875357], [79.16126668292732, 12.969578688409156], [79.16145099644558, 12.969579990732756], [79.16145033251873, 12.969670371275537], [79.16163464611783, 12.969671673482356], [79.1616333183809, 12.969852434585885], [79.16144900464704, 12.969851132361098], [79.16144834070221, 12.96994151290388], [79.16135618380383, 12.96994086174208], [79.16135485584232, 12.970121622809675], [79.16126269888106, 12.97012097160296], [79.16126203485538, 12.970211352136758], [79.16043262218612, 12.970205489767146], [79.16043328651722, 12.970115109278264], [79.16006465892373, 12.970112502951215], [79.16006532337161, 12.970022122480298], [79.15997316652714, 12.970021470824426], [79.15997515995164, 12.96975032942066], [79.15988300320598, 12.96974967774682], [79.15988366769878, 12.969659297284888], [79.1596993542883, 12.969657993838394], [79.15970001885297, 12.969567613385445], [79.15951570552335, 12.96956630982217], [79.1595150408958, 12.969656690266136], [79.15942288421303, 12.9696560384306], [79.15942354886752, 12.969565657995616], [79.15914707893597, 12.969563702309344], [79.1591504026576, 12.969111800161379], [79.15905824618143, 12.969111148227027]]]}, "id": "+33+6558", "properties": {"count": 228, "water": 1}}, {"type": "Feature", "geometry": {"geodesic": false, "type": "Polygon", "coordinates": [[[79.15907924755311, 12.978782502464528], [79.15907991281846, 12.97869212210141], [79.15917207281602, 12.978692774502885], [79.15917340326587, 12.97851201377665], [79.15935772314421, 12.978513318462818], [79.15935705798665, 12.97860369883492], [79.15954137795482, 12.978605003404308], [79.15954071286016, 12.978695383785393], [79.15963287288467, 12.97869603602517], [79.15963220781695, 12.978786416415238], [79.15972436787739, 12.978787068628067], [79.15972237273711, 12.979058209807253], [79.15963021257785, 12.979057557576457], [79.1596288823975, 12.979238318347608], [79.15953672217536, 12.97923766608088], [79.15953605704476, 12.979328046461966], [79.15944389679566, 12.979327394159304], [79.15944256644462, 12.979508154903506], [79.15916608552668, 12.979506197761964], [79.15916741606637, 12.97932543704471], [79.15925957630647, 12.979326089446186], [79.15926157198574, 12.97905494834785], [79.15916941184445, 12.97905429596434], [79.15917140757762, 12.978783154866003], [79.15907924755311, 12.978782502464528]]]}, "id": "+34+6451", "properties": {"count": 47, "water": 1}}, {"type": "Feature", "geometry": {"geodesic": false, "type": "Polygon", "coordinates": [[[79.18732825937117, 12.972382744731869], [79.1873295688274, 12.97220198106814], [79.18742172789071, 12.972202623147973], [79.18742827451605, 12.971298804712559], [79.18752043325597, 12.971299446711543], [79.18752305163841, 12.970937919294258], [79.18770736886673, 12.970939203166461], [79.18770802337924, 12.970848821303157], [79.18780018196645, 12.970849463176377], [79.18780083644303, 12.970759081313073], [79.18789299500328, 12.97075972315036], [79.18789495830727, 12.970488577524513], [79.18798711676871, 12.970489219325868], [79.18798646237298, 12.97057960120714], [79.18807862087934, 12.970580242972561], [79.18807731213278, 12.970761006735103], [79.188169470711, 12.97076164848256], [79.18816881636019, 12.970852030372813], [79.18835313358849, 12.97085331376891], [79.18835247930954, 12.970943695668147], [79.18844463795963, 12.970944337316787], [79.18844398370763, 12.971034719216025], [79.1883518250216, 12.9710340775584], [79.18835117072469, 12.971124459457638], [79.18844332944664, 12.971125101115263], [79.18844202091567, 12.971305864913736], [79.18834986212185, 12.971305223238145], [79.18834920781596, 12.971395605137383], [79.18853352546648, 12.971396888461614], [79.18853287121448, 12.971487270360852], [79.18862503008016, 12.97148791197356], [79.18862437586408, 12.97157829388178], [79.1887165347657, 12.971578935476522], [79.18871260955012, 12.97212122691686], [79.18843613226136, 12.972119301970938], [79.18843547793749, 12.972209683861191], [79.18769820511658, 12.972204549189842], [79.18769755052321, 12.97229493103518], [79.18760539141499, 12.972294289054162], [79.18760473678569, 12.972384670899501], [79.18732825937117, 12.972382744731869]]]}, "id": "+344+6542", "properties": {"count": 192, "water": 1}}, {"type": "Feature", "geometry": {"geodesic": false, "type": "MultiPolygon", "coordinates": [[[[79.19663765946467, 12.972266666371215], [79.19672981903105, 12.972267305154231], [79.1967272136652, 12.97262883437713], [79.19663505397305, 12.972628195567165], [79.19663440258668, 12.972718577870644], [79.19654224285861, 12.972717939024747], [79.19654354569425, 12.972537174444739], [79.19663570535046, 12.97253781327267], [79.19663765946467, 12.972266666371215]]], [[[79.19663765946467, 12.972266666371215], [79.19654549990729, 12.972266027552267], [79.19654484850294, 12.972356409846762], [79.19645268891861, 12.972355770991882], [79.19645399177222, 12.972175006411874], [79.19636183225974, 12.972174367530044], [79.19636248371799, 12.97208398524453], [79.19627032423247, 12.972083346335753], [79.19627097571765, 12.971992964050239], [79.19617881627705, 12.97199232511451], [79.1961794677892, 12.971901942837981], [79.19627162720285, 12.971902581764727], [79.19627227867008, 12.971812199479213], [79.19618011930135, 12.971811560552467], [79.1961807708045, 12.971721178266955], [79.19627293014629, 12.971721817193702], [79.19627358160453, 12.971631434908188], [79.19636574091938, 12.971632073790019], [79.196367043764, 12.971451309201028], [79.19645920301596, 12.971451948046925], [79.19645985440233, 12.971361565743445], [79.19664417285236, 12.971362843327443], [79.19664352153784, 12.971453225630922], [79.1965513622769, 12.97145258685689], [79.1965494081986, 12.971723733758344], [79.19645724883885, 12.971723094939396], [79.19645594603017, 12.971903859528387], [79.19673242430707, 12.971905775931331], [79.19673177300153, 12.971996158234811], [79.19682393246909, 12.97199679697291], [79.19682328118152, 12.972087179285372], [79.19654680268903, 12.972085262954293], [79.19654615129367, 12.97217564525777], [79.1966383108241, 12.972176284067736], [79.19663765946467, 12.972266666371215]]]]}, "id": "+438+6533", "properties": {"count": 37, "water": 1}}, {"type": "Feature", "geometry": {"geodesic": false, "type": "Polygon", "coordinates": [[[79.16026868502767, 12.979965926625573], [79.16027134460685, 12.979604404975472], [79.16036350499968, 12.979605056999654], [79.1603641698518, 12.979514676582637], [79.16045633021767, 12.979515328570887], [79.16045566540149, 12.979605708987904], [79.16054782580328, 12.979606360949205], [79.16054716102302, 12.979696741384188], [79.16063932146974, 12.979697393309557], [79.16063865670745, 12.97978777374454], [79.1607308171901, 12.979788425651941], [79.16073015246374, 12.979878806086925], [79.16082231298232, 12.979879457967376], [79.16082164828292, 12.97996983840236], [79.16091380883744, 12.979970490255862], [79.16091314416497, 12.980060870699829], [79.1610053047644, 12.9800615225174], [79.16100397547338, 12.980242283414315], [79.16081965414875, 12.980240979725275], [79.16082031886613, 12.980150599281309], [79.16063599763133, 12.980149295475488], [79.16063666240261, 12.980058915040505], [79.16036018068516, 12.980056959093723], [79.16036084556423, 12.979966578676706], [79.16026868502767, 12.979965926625573]]]}, "id": "+46+6440", "properties": {"count": 31, "water": 1}}, {"type": "Feature", "geometry": {"geodesic": false, "type": "Polygon", "coordinates": [[[79.20219956223289, 12.877669592382118], [79.20220214002047, 12.877308059449176], [79.20247851511688, 12.877309956062236], [79.2024778707733, 12.877400339308945], [79.2026621209244, 12.877401603570927], [79.2026614766437, 12.87749198682662], [79.20275360175967, 12.877492618908203], [79.20275231325216, 12.877673385428572], [79.20219956223289, 12.877669592382118]]]}, "id": "+494+7574", "properties": {"count": 20, "water": 1}}, {"type": "Feature", "geometry": {"geodesic": false, "type": "Polygon", "coordinates": [[[79.20129816176578, 12.939307626944656], [79.20129945770236, 12.939126861412433], [79.20139160532113, 12.93912749695253], [79.20139484490656, 12.938675583099517], [79.20185558224586, 12.938678760180165], [79.2018562299761, 12.938588377391595], [79.20204052488127, 12.9385896479867], [79.20204117254862, 12.938499265180164], [79.2022254673999, 12.938500535640522], [79.20222481980441, 12.938590918447057], [79.20240911474552, 12.938592188790633], [79.20240846720394, 12.93868257160615], [79.2025006147149, 12.938683206733023], [79.20250126222057, 12.938592823908522], [79.20259340970459, 12.938593458990479], [79.20259276223487, 12.938683841823963], [79.20286920481273, 12.938685746899152], [79.20286855743284, 12.93877612974162], [79.20305285257157, 12.938777399645021], [79.20305091061155, 12.939048548199375], [79.20314305829321, 12.939049183110653], [79.20314176369513, 12.939229948822538], [79.20323391143967, 12.939230583715847], [79.20323326416757, 12.939320966576283], [79.20332541195702, 12.93932160143366], [79.20332476471188, 12.939411984303078], [79.20341691253726, 12.939412619133506], [79.20341497086471, 12.939683767732776], [79.2033228229405, 12.939683132884381], [79.2033221756774, 12.939773515744815], [79.2031378797751, 12.939772245940228], [79.20313723244011, 12.93986262879168], [79.20304508446202, 12.939861993835487], [79.20304443708213, 12.939952376677956], [79.202860141081, 12.939951106666756], [79.20286078852378, 12.939860723824289], [79.20276864056365, 12.939860088769281], [79.20276928803337, 12.93976970594478], [79.20267714010916, 12.939769070862823], [79.20267843509353, 12.939588305204836], [79.20258628724119, 12.93958767009593], [79.20258693476481, 12.93949728727143], [79.20240263914098, 12.939496016981751], [79.2024032867185, 12.93940563415725], [79.202126843422, 12.939403728489172], [79.20212619574566, 12.939494111286725], [79.20138901355578, 12.939489028016975], [79.20139030944743, 12.939308262484753], [79.20129816176578, 12.939307626944656]]]}, "id": "+496+6897", "properties": {"count": 209, "water": 1}}, {"type": "Feature", "geometry": {"geodesic": false, "type": "Polygon", "coordinates": [[[79.20296264702061, 12.938505616161425], [79.2029632943466, 12.938415233309973], [79.2030554417947, 12.938415868230233], [79.20305608908475, 12.938325485369798], [79.20296394167259, 12.938324850458523], [79.20296653092267, 12.937963319043734], [79.20305867820008, 12.937963953937045], [79.20305803092799, 12.938054336797478], [79.20315017824134, 12.93805497166384], [79.2031495309962, 12.938145354524274], [79.20324167834548, 12.938145989363685], [79.20324103113626, 12.93823637222412], [79.20333317852148, 12.938237007036582], [79.20333253133921, 12.938327389906], [79.20351682619948, 12.938328659432107], [79.20351553194274, 12.93850942518891], [79.20342338444075, 12.938508790430348], [79.20342273727645, 12.938599173308747], [79.20305414719661, 12.938596633933136], [79.20305479449566, 12.938506251081686], [79.20296264702061, 12.938505616161425]]]}, "id": "+505+6903", "properties": {"count": 25, "water": 1}}, {"type": "Feature", "geometry": {"geodesic": false, "type": "Polygon", "coordinates": [[[79.2044408879183, 12.93797347341106], [79.20444153468733, 12.937883090487743], [79.20453368200967, 12.937883724851048], [79.20453432874277, 12.937793341918749], [79.20499506525562, 12.937796513241196], [79.20499377212178, 12.937977279159693], [79.205085919498, 12.937977913334352], [79.20508527296253, 12.9380682962936], [79.20499312554139, 12.93806766210996], [79.20499183237162, 12.938248428019474], [79.20508397985564, 12.9382490622121], [79.20508333330221, 12.938339445162365], [79.20480689076928, 12.938337542485677], [79.20480753742153, 12.938247159544394], [79.20471538995547, 12.938246525252955], [79.20471603664366, 12.938156142311673], [79.20462388921352, 12.938155507993285], [79.20462453592866, 12.938065125060984], [79.20453238853446, 12.938064490715647], [79.20453303527655, 12.937974107783347], [79.2044408879183, 12.93797347341106]]]}, "id": "+526+6905", "properties": {"count": 27, "water": 1}}, {"type": "Feature", "geometry": {"geodesic": false, "type": "Polygon", "coordinates": [[[79.20479033586962, 12.953522502755924], [79.20479357306552, 12.953070588552567], [79.20488572598435, 12.953071223526726], [79.20488702075312, 12.952890457832806], [79.20497917360908, 12.952891092771033], [79.20497852626512, 12.952981475622483], [79.205070679157, 12.952982110524777], [79.20507132647401, 12.952891727664342], [79.20516347933895, 12.952892362530703], [79.20516218476781, 12.953073128251573], [79.20525433770462, 12.953073763099967], [79.20525369044151, 12.9531641459604], [79.20534584341425, 12.953164780772862], [79.20534454894192, 12.953345546511697], [79.20506808983507, 12.953343641939565], [79.2050674424911, 12.953434024791017], [79.20497528942853, 12.953433389861774], [79.20497464204864, 12.953523772713226], [79.20479033586962, 12.953522502755924]]]}, "id": "+529+6738", "properties": {"count": 27, "water": 1}}, {"type": "Feature", "geometry": {"geodesic": false, "type": "Polygon", "coordinates": [[[79.2134250055501, 12.944543088613111], [79.21342564942657, 12.944452705285551], [79.21351779961452, 12.944453336792213], [79.21351844344606, 12.944362953464655], [79.21361059360707, 12.944363584935385], [79.21361188118932, 12.944182818253317], [79.21370403128745, 12.944183449688115], [79.21370467504713, 12.944093066342589], [79.21388897518949, 12.944094329095401], [79.21388768781385, 12.944275095804416], [79.2139798379569, 12.944275727140399], [79.21397790694735, 12.944546877203923], [79.2134250055501, 12.944543088613111]]]}, "id": "+623+6836", "properties": {"count": 20, "water": 1}}, {"type": "Feature", "geometry": {"geodesic": false, "type": "Polygon", "coordinates": [[[79.21291446587196, 12.925648543830238], [79.21291510895792, 12.925558160394882], [79.21300725218393, 12.925558791182892], [79.21300982433905, 12.9251972574235], [79.21310196743931, 12.92519788815761], [79.21310261043543, 12.925107504704288], [79.21319475350873, 12.925108135402466], [79.21319539645992, 12.925017751949143], [79.21347182560797, 12.925019643828081], [79.21347246846034, 12.924929260365776], [79.21356461147975, 12.924929890920223], [79.2135652542962, 12.924839507448935], [79.21365739728866, 12.924840137967449], [79.2136586828407, 12.924659371015888], [79.21375082577028, 12.92466000149847], [79.21375018303468, 12.924750384978742], [79.21393446898365, 12.924751645845092], [79.21393511165637, 12.924661262355837], [79.2140272546039, 12.924661892739604], [79.2140278972407, 12.924571509241366], [79.21412004016128, 12.924572139580217], [79.21412068275315, 12.92448175608198], [79.21356782549913, 12.924477973563778], [79.21356653991113, 12.924658740506356], [79.21347439698157, 12.924658109960893], [79.21347503981598, 12.924567726498587], [79.21338289692234, 12.924567095926173], [79.2133835397837, 12.924476712463868], [79.21310711125551, 12.924474820566964], [79.21310839715791, 12.924294053660319], [79.21320053992578, 12.92429468431358], [79.21320375443922, 12.923842767020018], [79.21357232491783, 12.923845289228824], [79.21357168215528, 12.923935672709096], [79.21366382482434, 12.923936303182696], [79.21366446755096, 12.92384591969344], [79.21403303812838, 12.923848441246477], [79.2140323955365, 12.923938824753698], [79.21412453822353, 12.9239394550656], [79.21412389565862, 12.924029838563838], [79.21421603839056, 12.924030468848791], [79.21421346821171, 12.92439200288666], [79.2143977539451, 12.924393263384701], [79.21439839642916, 12.924302879877478], [79.21449053926891, 12.924303510072601], [79.21449182416518, 12.924122743031209], [79.21467610972788, 12.924124003313652], [79.21467482496635, 12.924304770373011], [79.21504339642412, 12.924307290587558], [79.21504146964563, 12.924578441234987], [79.21494932668013, 12.924577811210545], [79.2149480420713, 12.924758578296853], [79.21513232814604, 12.924759838318787], [79.21513297038757, 12.924669454766649], [79.21522511339799, 12.92467008472821], [79.21522126008357, 12.925212386041032], [79.21512911686654, 12.925211756061506], [79.21512783232957, 12.925392523147814], [79.21503568904966, 12.925391893123372], [79.21503504673626, 12.925482276666527], [79.21494290343838, 12.92548164659717], [79.21494226108906, 12.92557203013134], [79.21466583111457, 12.925570139734623], [79.21466647356272, 12.925479756209436], [79.21429790046102, 12.925477235240304], [79.21429854304391, 12.925386851733082], [79.21420639980892, 12.925386221412197], [79.21420704241875, 12.925295837913959], [79.21402275603859, 12.92529457719134], [79.21402211336587, 12.925384960680594], [79.21383782694079, 12.925383699814246], [79.21383525594447, 12.92574523372635], [79.21392739928727, 12.925745864199948], [79.21392675655167, 12.925836247680222], [79.2140188999304, 12.925836878117888], [79.21401697181342, 12.92610802857667], [79.21383268485833, 12.926106767638455], [79.21383332763885, 12.926016384167166], [79.21355689734098, 12.92601449252179], [79.21355754021133, 12.925924109059483], [79.21337325344489, 12.925922847815842], [79.21337389637812, 12.92583246436252], [79.21328175302634, 12.92583183369129], [79.21328239598652, 12.925741450237968], [79.2130059660839, 12.925739558062586], [79.21300660913391, 12.925649174618247], [79.21291446587196, 12.925648543830238]], [[79.21393318362922, 12.924932412823603], [79.21393382631092, 12.924842029334346], [79.21402596933032, 12.924842659727098], [79.21402532667557, 12.924933043216353], [79.21393318362922, 12.924932412823603]], [[79.21429918561782, 12.925296468225861], [79.21429982818275, 12.925206084727623], [79.21439197134588, 12.925206715003592], [79.21439261388385, 12.92511633149637], [79.21448475702003, 12.925116961736409], [79.21448347202494, 12.925297728759833], [79.21429918561782, 12.925296468225861]], [[79.21485204489306, 12.925300249441504], [79.21485332962764, 12.925119482373162], [79.2150376159629, 12.925120742493911], [79.21503633136305, 12.925301509580219], [79.21485204489306, 12.925300249441504]]]}, "id": "+623+7060", "properties": {"count": 335, "water": 1}}, {"type": "Feature", "geometry": {"geodesic": false, "type": "Polygon", "coordinates": [[[79.21704842137895, 12.940410051552652], [79.21705034843592, 12.940138900941156], [79.2171424972225, 12.940139530965597], [79.21714313952691, 12.940049147422442], [79.21723528828655, 12.940049777410952], [79.21723721507402, 12.939778626763523], [79.21714506642218, 12.93977799679298], [79.21714699326355, 12.939506846154535], [79.21723914182556, 12.939507476107112], [79.21723849958403, 12.93959785965925], [79.21733064818197, 12.939598489593859], [79.2173300059584, 12.939688873145995], [79.21742215459228, 12.939689503044672], [79.21742151240464, 12.939779886605793], [79.21769795844101, 12.939781776131145], [79.2176973163522, 12.939872159701249], [79.21797376252331, 12.93987404893914], [79.21797312052432, 12.939964432527209], [79.21751237675309, 12.939961283608746], [79.21751173458343, 12.940051667169865], [79.21760388336104, 12.940052297023627], [79.2176025990756, 12.940233064154851], [79.21778689678352, 12.940234323781524], [79.21778753886335, 12.94014394020244], [79.21797183651738, 12.940145199694365], [79.21797247852534, 12.940054816115278], [79.2180646273299, 12.940055445807344], [79.21806398534888, 12.940145829395414], [79.21815613418936, 12.940146459060529], [79.21815356637309, 12.940507993421791], [79.21833786433254, 12.94050925268914], [79.21833722243237, 12.940599636286192], [79.21842937145252, 12.940600265879443], [79.21842808770607, 12.940781033082532], [79.21833593861406, 12.940780403480298], [79.21833401285966, 12.941051554271457], [79.21861046043215, 12.941053443006291], [79.21860853492028, 12.941324593833384], [79.21870068422788, 12.941325223354768], [79.2186987587789, 12.941596374190842], [79.21879090817635, 12.94159700369426], [79.21879026638398, 12.94168738730928], [79.21851381808385, 12.94168549867326], [79.21851317619267, 12.941775882270314], [79.21842102673234, 12.941775252659097], [79.21842166866846, 12.941684869062044], [79.21823736982866, 12.941683609740798], [79.21823801182764, 12.94159322616171], [79.2183301612071, 12.941593855826826], [79.21833337092355, 12.94114193786851], [79.21824122171476, 12.941141308212378], [79.2182418636778, 12.941050924624308], [79.21814971449596, 12.94105029495021], [79.21815035648596, 12.94095991136214], [79.21778175996519, 12.940957392351336], [79.21778111784045, 12.94104777592144], [79.21759681953964, 12.941046516204933], [79.21759746173626, 12.940956132643814], [79.21750531262627, 12.940955502745137], [79.21750659705543, 12.940774735640861], [79.2173222989882, 12.940773475753677], [79.21732294125667, 12.940683092210522], [79.21723079226346, 12.940682462230995], [79.21723143456788, 12.94059207867886], [79.21713928561061, 12.940591448672384], [79.21714057026435, 12.94041068159506], [79.21704842137895, 12.940410051552652]]]}, "id": "+659+6887", "properties": {"count": 162, "water": 1}}, {"type": "Feature", "geometry": {"geodesic": false, "type": "Polygon", "coordinates": [[[79.21983982301748, 12.936632823638622], [79.21984110532661, 12.936452056237902], [79.21993325290047, 12.936452685103518], [79.21993453511978, 12.936271917684833], [79.22002668263076, 12.936272546505531], [79.22002796476922, 12.936091779077863], [79.2201201122173, 12.93609240786263], [79.2201207532461, 12.936002024139812], [79.22021290066726, 12.936002652879663], [79.22021418264401, 12.935821885434029], [79.22030633000229, 12.935822514128963], [79.22030697095023, 12.935732130406146], [79.22058341296214, 12.935734016284337], [79.220582772113, 12.93582440002512], [79.22067491948924, 12.935825028594293], [79.22067427867603, 12.935915412344059], [79.22095072093947, 12.935917297862925], [79.2209500802161, 12.936007681621675], [79.22104222768216, 12.936008310074063], [79.22104158698573, 12.936098693832813], [79.22113373449672, 12.936099322249271], [79.22113309382723, 12.936189706017004], [79.2210409462893, 12.936189077600547], [79.2210390241551, 12.936460228876795], [79.22094687652735, 12.936459600415423], [79.22094495424942, 12.936730751673705], [79.22103710198498, 12.936731380162028], [79.22103582051128, 12.936912147670544], [79.22094367271283, 12.936911519182221], [79.22094431348113, 12.936821135432455], [79.2208521657276, 12.9368205069082], [79.22085280652284, 12.936730123158434], [79.22039206796184, 12.936726980096985], [79.22039270892776, 12.936636596365185], [79.22030056126407, 12.936635967661267], [79.22030120225695, 12.93654558393845], [79.21993261178184, 12.936543068808367], [79.21993197065422, 12.936633452513219], [79.21983982301748, 12.936632823638622]]]}, "id": "+695+6929", "properties": {"count": 102, "water": 1}}, {"type": "Feature", "geometry": {"geodesic": false, "type": "Polygon", "coordinates": [[[79.15624246260423, 12.988523974881193], [79.15624446301761, 12.988252834438628], [79.15633662639284, 12.98825348831334], [79.15633729315837, 12.988163108156835], [79.15642945649766, 12.988163762004596], [79.15643078993891, 12.987983001682602], [79.15670727981306, 12.987984962983345], [79.15670794642588, 12.987894582808874], [79.15680010968433, 12.987895236503924], [79.15679877652157, 12.988075996870833], [79.15670661319125, 12.988075343157817], [79.15670594656945, 12.988165723332289], [79.1566137832032, 12.988165069592325], [79.15661311654547, 12.988255449757814], [79.15670527993866, 12.98825610350676], [79.15670328001934, 12.988527244021194], [79.15661111652733, 12.988526590263263], [79.15661178320303, 12.988436210097774], [79.15633529285277, 12.98843424862635], [79.15633462607826, 12.988524628773872], [79.15624246260423, 12.988523974881193]]]}, "id": "+7+6347", "properties": {"count": 23, "water": 1}}, {"type": "Feature", "geometry": {"geodesic": false, "type": "Polygon", "coordinates": [[[79.2209391871641, 12.937544205430587], [79.22094046877257, 12.937363437940038], [79.2210326167327, 12.937364066446326], [79.2210338982603, 12.93718329893781], [79.22112604615755, 12.937183927417149], [79.22112732759533, 12.937003159890667], [79.22121947543867, 12.93700378832509], [79.22122011611714, 12.936913404557357], [79.22149655956636, 12.93691528964503], [79.2214959189867, 12.93700567343073], [79.22140377113438, 12.937005045095122], [79.22140120863612, 12.937366580184019], [79.22130906065803, 12.937365951803494], [79.22130713863163, 12.93763710309771], [79.22103069441884, 12.937635217704608], [79.22103133519612, 12.937544833954842], [79.2209391871641, 12.937544205430587]]]}, "id": "+705+6916", "properties": {"count": 28, "water": 1}}, {"type": "Feature", "geometry": {"geodesic": false, "type": "Polygon", "coordinates": [[[79.156854752101, 12.98048405948433], [79.15685675057404, 12.980212918772269], [79.15694891101177, 12.980213572045109], [79.15694824489302, 12.980303952282462], [79.15713256585832, 12.980305258720346], [79.15713189980245, 12.980395638975667], [79.15722406033002, 12.980396292149694], [79.1572233943011, 12.980486672405013], [79.1573155548646, 12.98048732555209], [79.15731422286066, 12.980668086071713], [79.15740638348704, 12.98066873919184], [79.15740505152803, 12.980849499720447], [79.15749721223526, 12.980850152822608], [79.15749588032115, 12.981030913351214], [79.15721939801979, 12.981028953909984], [79.15722073013153, 12.98084819341731], [79.15712856944226, 12.980847540216335], [79.15712923552509, 12.980757159969997], [79.15703707487175, 12.980756506742072], [79.15703774098152, 12.980666126495736], [79.1569455803731, 12.980665473240862], [79.15694691264653, 12.980484712766154], [79.156854752101, 12.98048405948433]]]}, "id": "+8+6432", "properties": {"count": 29, "water": 1}}]}